{
"type": "FeatureCollection",
"name": "cainta_barangays",
"crs": { "type": "name", "properties": { "name": "urn:ogc:def:crs:OGC:1.3:CRS84" } },
"features": [
{ "type": "Feature", "properties": { "OBJECTID": 12591, "ADM4_EN": "San Andres (Pob.)", "ADM4_PCODE": "PH0405805014", "ADM4_REF": null, "ADM3_EN": "Cainta", "ADM3_PCODE": "PH0405805", "ADM2_EN": "Rizal", "ADM2_PCODE": "PH04058", "ADM1_EN": "Region IV-A (Calabarzon)", "ADM1_PCODE": "PH04", "ADM0_EN": "Philippines (the)", "ADM0_PCODE": "PH", "date": "2022-11-09T00:00:00Z", "validOn": "2023-11-06T00:00:00Z", "validTo": null, "Shape_Length": 0.11835945423401843, "Shape_Area": 0.00041581183453216243, "AREA_SQKM": 4.9579776611501485 }, "geometry": { "type": "MultiPolygon", "coordinates": [ [ [ [ 121.111840619000077, 14.580045076000033 ], [ 121.112315162000073, 14.579539718000035 ], [ 121.112237232000098, 14.579407697000022 ], [ 121.112827918000107, 14.57919636500003 ], [ 121.113114883000094, 14.579088555000055 ], [ 121.113305886000035, 14.579229454000028 ], [ 121.113543511000103, 14.579202070000065 ], [ 121.113539723000031, 14.579332381000029 ], [ 121.11365692600009, 14.579325911000069 ], [ 121.113890881000088, 14.579300527000044 ], [ 121.114144911000039, 14.579363921000038 ], [ 121.114292379000062, 14.579369762000056 ], [ 121.114379216000088, 14.57910967600003 ], [ 121.11436289300002, 14.578882969000063 ], [ 121.114604793000012, 14.57871414400006 ], [ 121.11446043300009, 14.578532125000038 ], [ 121.114572952000117, 14.578481439000029 ], [ 121.114740626000071, 14.578473903000031 ], [ 121.114953515000025, 14.578456947000063 ], [ 121.115053366000097, 14.578392892000068 ], [ 121.115189012000087, 14.578340141000069 ], [ 121.115398134000088, 14.578308113000048 ], [ 121.115560156000015, 14.578313765000075 ], [ 121.115688737000028, 14.578359922000061 ], [ 121.115903510000066, 14.578379704000042 ], [ 121.116339355000036, 14.578448816000048 ], [ 121.116374554000117, 14.578308022000044 ], [ 121.116424841000025, 14.578098124000064 ], [ 121.117454518000045, 14.578239414000052 ], [ 121.117722931000117, 14.578265389000023 ], [ 121.117681880000077, 14.578511911000078 ], [ 121.118115383000031, 14.578622677000055 ], [ 121.118163468000034, 14.578448369000057 ], [ 121.118283681000094, 14.578286082000034 ], [ 121.118524106000109, 14.578183901000045 ], [ 121.118716447000111, 14.57812980500006 ], [ 121.118783946, 14.578030967000075 ], [ 121.11888474400007, 14.577883369000062 ], [ 121.119119159000093, 14.577612891000058 ], [ 121.119299478000016, 14.577396508000049 ], [ 121.119383627000047, 14.577186136000023 ], [ 121.119381697000108, 14.577087716000051 ], [ 121.11889158800011, 14.576942322000036 ], [ 121.11859404300003, 14.576831126000059 ], [ 121.118427668000095, 14.576795821000076 ], [ 121.1175791820001, 14.576557756000057 ], [ 121.11739817900002, 14.576470850000021 ], [ 121.116732108000065, 14.576542714000027 ], [ 121.1164310690001, 14.576496708000036 ], [ 121.116220081000051, 14.576461738000035 ], [ 121.116069178000089, 14.57637186200003 ], [ 121.116032848000032, 14.576098487000024 ], [ 121.115995895000083, 14.575942351000037 ], [ 121.115915598000015, 14.575815250000062 ], [ 121.115891527000031, 14.575634713000056 ], [ 121.115879491000101, 14.575478249000071 ], [ 121.115855420000116, 14.575177355000051 ], [ 121.115819312000099, 14.57504496200005 ], [ 121.115710991000014, 14.575008854000032 ], [ 121.115049024000086, 14.574972747000061 ], [ 121.114296790000026, 14.574990801000069 ], [ 121.114284754000096, 14.574695925000071 ], [ 121.114266609000083, 14.574315861000059 ], [ 121.114696790000039, 14.574320537000062 ], [ 121.114743549000082, 14.573955819000048 ], [ 121.114767623000034, 14.573572370000022 ], [ 121.114762887000097, 14.573286554000049 ], [ 121.11482636300002, 14.57304702700003 ], [ 121.112949348000029, 14.572806409000066 ], [ 121.113011313000015, 14.572139581000044 ], [ 121.113043735000019, 14.571843479000052 ], [ 121.113055827000039, 14.571733037000058 ], [ 121.113070909000044, 14.571578450000061 ], [ 121.113110667000115, 14.571207790000074 ], [ 121.113259826000103, 14.570370596000032 ], [ 121.113406343000065, 14.570341155000051 ], [ 121.113546029000076, 14.570340608000038 ], [ 121.113803580000081, 14.570339599000022 ], [ 121.114109503, 14.570338400000026 ], [ 121.114129492000075, 14.569698335000055 ], [ 121.114167868000095, 14.569588712000041 ], [ 121.114139416000057, 14.569068937000054 ], [ 121.114115835, 14.568862144000036 ], [ 121.114545250000106, 14.568842643000039 ], [ 121.114541027000087, 14.568618897000022 ], [ 121.114526550000051, 14.568199068000069 ], [ 121.114517184000078, 14.567822679000074 ], [ 121.116184150000095, 14.567808193000076 ], [ 121.116415779000022, 14.567808193000076 ], [ 121.116572832000088, 14.567808688000071 ], [ 121.11664878900001, 14.567611200000044 ], [ 121.116738949000023, 14.567424871000071 ], [ 121.116865172000075, 14.567136360000063 ], [ 121.11681107600009, 14.566938010000058 ], [ 121.116666821000081, 14.566733648000024 ], [ 121.1165586300001, 14.566553329000044 ], [ 121.116366290000087, 14.566336946000035 ], [ 121.11616192800011, 14.566150617000062 ], [ 121.115951556000027, 14.565880139000058 ], [ 121.115771237000104, 14.565735883000059 ], [ 121.11556086500002, 14.565555564000022 ], [ 121.115350493000051, 14.565375245000041 ], [ 121.115167043000042, 14.565297182000052 ], [ 121.115067993000025, 14.565255033000028 ], [ 121.11480352600006, 14.56515285200004 ], [ 121.114587143000108, 14.565056682000034 ], [ 121.114310654000064, 14.565164873000072 ], [ 121.113913952000075, 14.565369235000048 ], [ 121.113643474000014, 14.565513490000058 ], [ 121.11330086800001, 14.565669766000042 ], [ 121.113072464000084, 14.56584407500003 ], [ 121.112820017000104, 14.565922213000022 ], [ 121.11254352800006, 14.565952266000068 ], [ 121.112261029000024, 14.565856096000061 ], [ 121.112152268000045, 14.565829352000037 ], [ 121.111894380000081, 14.565765937000037 ], [ 121.111677997000015, 14.565687798000056 ], [ 121.111407519000068, 14.56544737300004 ], [ 121.111342011000033, 14.565367827000046 ], [ 121.111273675, 14.565466908000076 ], [ 121.111143295000034, 14.565658257000052 ], [ 121.110888098000032, 14.566032546000031 ], [ 121.110652384000105, 14.566376519000073 ], [ 121.110532213000056, 14.566620035000028 ], [ 121.110258523000084, 14.566901962000031 ], [ 121.110029810000015, 14.567240921000064 ], [ 121.109904570000026, 14.56714671800006 ], [ 121.1097059760001, 14.567014462000031 ], [ 121.109682040000052, 14.567043351000052 ], [ 121.109378358000072, 14.566860363000046 ], [ 121.10860423500003, 14.566364926000062 ], [ 121.108616079000058, 14.566347068000027 ], [ 121.108631267000078, 14.566323505000071 ], [ 121.1076178510001, 14.565651548000062 ], [ 121.108117199000048, 14.564970095000035 ], [ 121.108579150000082, 14.564328530000068 ], [ 121.109500175000107, 14.563052981000055 ], [ 121.109906564000084, 14.562499841000033 ], [ 121.110120262, 14.562201085000027 ], [ 121.110802170000056, 14.561256727000057 ], [ 121.111238615000048, 14.56063722600004 ], [ 121.111633897000047, 14.560094278000065 ], [ 121.111779270000056, 14.559897586000034 ], [ 121.112148459000082, 14.559383345000072 ], [ 121.11258195500011, 14.558785901000022 ], [ 121.113151819000109, 14.558006356000021 ], [ 121.113422377, 14.557634418000077 ], [ 121.113543055000036, 14.557468227000072 ], [ 121.113841570000091, 14.55704202000004 ], [ 121.114357769000094, 14.556304026000078 ], [ 121.114611285000024, 14.555936572000064 ], [ 121.114658672000019, 14.555868108000027 ], [ 121.114826926000092, 14.555629228000043 ], [ 121.115284319000011, 14.554979837000076 ], [ 121.114558180000017, 14.55440487900006 ], [ 121.114227116000052, 14.554220241000053 ], [ 121.113789292000092, 14.553919131000043 ], [ 121.113595727000074, 14.55376648500004 ], [ 121.113600814000051, 14.553717684000048 ], [ 121.113561777000086, 14.553396515000031 ], [ 121.113512981000099, 14.552801406000071 ], [ 121.113298276000023, 14.55206460200003 ], [ 121.112978883000096, 14.551479055000073 ], [ 121.112820071000101, 14.551129424000067 ], [ 121.112603918000104, 14.550841748000039 ], [ 121.112585847000105, 14.55081769800006 ], [ 121.11243945800004, 14.55068545000006 ], [ 121.111980771000049, 14.550392615000021 ], [ 121.111620708000032, 14.550163574000067 ], [ 121.111248823000096, 14.549721927000064 ], [ 121.111182319000022, 14.549642215000063 ], [ 121.110819414000048, 14.549306289000072 ], [ 121.110058189000029, 14.548456117000057 ], [ 121.109560464000083, 14.548323868000068 ], [ 121.109072499000035, 14.548078262000047 ], [ 121.108682127000066, 14.547775977000072 ], [ 121.108477635000099, 14.548002461000067 ], [ 121.107968443000118, 14.548420754000063 ], [ 121.107676810000044, 14.548638825000069 ], [ 121.107428636, 14.54881782700005 ], [ 121.107081675000018, 14.549111409000034 ], [ 121.106708025000103, 14.549445026000058 ], [ 121.106134205000103, 14.549952123000025 ], [ 121.105640452000102, 14.550432530000023 ], [ 121.104906496000012, 14.550952972000061 ], [ 121.103878957, 14.551433380000049 ], [ 121.102984865000053, 14.552007200000048 ], [ 121.102584526000101, 14.552260748000037 ], [ 121.102407049000021, 14.552366463000055 ], [ 121.101818754000078, 14.552660610000032 ], [ 121.101701095000067, 14.552827294000053 ], [ 121.101514801, 14.553003782000076 ], [ 121.101387337, 14.553150856000059 ], [ 121.101142215000095, 14.553474418000064 ], [ 121.101014751000093, 14.553572467000038 ], [ 121.10086767700011, 14.553592077000076 ], [ 121.100700993000032, 14.553601882000066 ], [ 121.100485285000104, 14.553592077000076 ], [ 121.100298992000035, 14.553562662000047 ], [ 121.100196431000086, 14.553529225000034 ], [ 121.100083284000107, 14.553484223000055 ], [ 121.099896990000047, 14.553395979000072 ], [ 121.099544013000013, 14.55326851500007 ], [ 121.099338110000076, 14.55321949000006 ], [ 121.099122402000035, 14.553317539000034 ], [ 121.098994938000033, 14.553484223000055 ], [ 121.098871145000089, 14.55372092600004 ], [ 121.098799742000097, 14.553836406000073 ], [ 121.098749815000019, 14.553886225000042 ], [ 121.098661571000093, 14.554043103000026 ], [ 121.098455668000042, 14.554268616000059 ], [ 121.09831839900005, 14.55444510500007 ], [ 121.098122300000114, 14.554700033000074 ], [ 121.098093472000073, 14.554774911000038 ], [ 121.098243188000083, 14.554934872000047 ], [ 121.09829830700005, 14.555188374000068 ], [ 121.098283134000098, 14.555362863000028 ], [ 121.098256581000101, 14.55558287100007 ], [ 121.09816554300005, 14.555776326000057 ], [ 121.098047953000105, 14.556136684000023 ], [ 121.097862084000099, 14.556497042000046 ], [ 121.097827945000063, 14.556846020000023 ], [ 121.097898342, 14.557102476000068 ], [ 121.097953122000035, 14.557426386000031 ], [ 121.098025193000012, 14.557699499000023 ], [ 121.098036573000059, 14.557927094000036 ], [ 121.098138991000042, 14.558173655000076 ], [ 121.098199682000086, 14.558317798000076 ], [ 121.098230028000103, 14.558450561000029 ], [ 121.098180716000115, 14.558598497000048 ], [ 121.098036573000059, 14.558700915000031 ], [ 121.09787725700005, 14.558784366000054 ], [ 121.097714148000023, 14.558867818000067 ], [ 121.097475173000021, 14.559023340000067 ], [ 121.097228613000084, 14.559197830000073 ], [ 121.097008605000042, 14.559311627000056 ], [ 121.096469694, 14.559811981000053 ], [ 121.09637116600004, 14.559984404000033 ], [ 121.09637116600004, 14.560206091000055 ], [ 121.096519277000084, 14.560510291000071 ], [ 121.096640660000048, 14.560745472000065 ], [ 121.096777217000067, 14.560980653000058 ], [ 121.096845495000025, 14.561124796000058 ], [ 121.096963086000073, 14.561314458000027 ], [ 121.097057917000029, 14.561432049000075 ], [ 121.097179301000097, 14.561625504000062 ], [ 121.097406895000063, 14.561792406000052 ], [ 121.097664836000035, 14.561978275000058 ], [ 121.097884843000088, 14.562118625000039 ], [ 121.09799105400009, 14.562202076000062 ], [ 121.098044160000086, 14.562296907000075 ], [ 121.098084768000035, 14.562368499000058 ], [ 121.097475214000042, 14.562912771000072 ], [ 121.097050302000071, 14.563211212000056 ], [ 121.096722438000029, 14.563367578000054 ], [ 121.096197672000017, 14.563666885000032 ], [ 121.096027547000062, 14.563784082000041 ], [ 121.095948155000087, 14.563852132000022 ], [ 121.095895228000018, 14.563931524000054 ], [ 121.095891447000099, 14.564003354000022 ], [ 121.095917911000015, 14.564124332000063 ], [ 121.095940594000012, 14.564302018000035 ], [ 121.09598596100011, 14.564392751000071 ], [ 121.09611071900008, 14.564479703000075 ], [ 121.096178769000062, 14.564566656000068 ], [ 121.096258161000037, 14.564702756000031 ], [ 121.096273283000073, 14.56480483100006 ], [ 121.096311616000094, 14.564858149000031 ], [ 121.096322790000045, 14.564929272000029 ], [ 121.096305731000029, 14.564999382000053 ], [ 121.096285357000056, 14.56512907900003 ], [ 121.09661020100009, 14.565067988000067 ], [ 121.096810527000116, 14.566845880000074 ], [ 121.0968965510001, 14.569254547000071 ], [ 121.096976189000088, 14.569300865000059 ], [ 121.097071167000081, 14.569341803000043 ], [ 121.097401953000031, 14.569521934000022 ], [ 121.097676055000079, 14.569701116000033 ], [ 121.097831982000116, 14.56979707000005 ], [ 121.097919940000111, 14.56986303900004 ], [ 121.098025890000031, 14.569927009000025 ], [ 121.098097856000095, 14.56995299700003 ], [ 121.098185815000079, 14.569966990000069 ], [ 121.098265119000075, 14.569990275000066 ], [ 121.098344534000034, 14.570055251000042 ], [ 121.098409509000021, 14.570167154000046 ], [ 121.09898496400001, 14.570899024000028 ], [ 121.099840690000065, 14.571857256000044 ], [ 121.099977747000025, 14.572030332000054 ], [ 121.100245779000034, 14.572298364000062 ], [ 121.100568097000064, 14.572596932000067 ], [ 121.100716118000037, 14.572736009000039 ], [ 121.100843397000062, 14.57285674700006 ], [ 121.101763417000029, 14.573731944000031 ], [ 121.100974534000102, 14.574820267000064 ], [ 121.10199744800002, 14.57567909100004 ], [ 121.103185124000106, 14.576438258000053 ], [ 121.103301889000022, 14.576455314000043 ], [ 121.103466773000036, 14.576559148000058 ], [ 121.103578882000079, 14.576621187000057 ], [ 121.104007253000077, 14.576811217000056 ], [ 121.104225230000111, 14.576888732000043 ], [ 121.104360308000082, 14.576967527000022 ], [ 121.104496821000112, 14.577070494000054 ], [ 121.104669860000058, 14.577237682000032 ], [ 121.104849964000095, 14.577423414000066 ], [ 121.104941297000096, 14.577516581000054 ], [ 121.105081404000089, 14.577645414000074 ], [ 121.105226342000037, 14.577679233000026 ], [ 121.105615404000105, 14.577648543000066 ], [ 121.105744853000033, 14.577693569000076 ], [ 121.105863046000081, 14.57780613400007 ], [ 121.106020279000063, 14.578052851000052 ], [ 121.106131398000116, 14.578194568000072 ], [ 121.106234465000057, 14.578331454000022 ], [ 121.106303713000102, 14.578437741000073 ], [ 121.106371351, 14.578535977000058 ], [ 121.106431498, 14.578594087000056 ], [ 121.106477124000094, 14.578623728000025 ], [ 121.10654527600002, 14.578669642000023 ], [ 121.106625797000106, 14.578698630000076 ], [ 121.106714371000066, 14.57871151300003 ], [ 121.10686897100004, 14.578727617000027 ], [ 121.106956291000074, 14.578737054000044 ], [ 121.1071040920001, 14.57875821500005 ], [ 121.107339214000035, 14.578790424000033 ], [ 121.107559841000011, 14.578838736000023 ], [ 121.107866761000082, 14.578932882000061 ], [ 121.108022032, 14.578993337000043 ], [ 121.108353924000085, 14.579272341000035 ], [ 121.108489054000074, 14.579471631000047 ], [ 121.108559913000022, 14.579587582000045 ], [ 121.108606615000099, 14.579721247000066 ], [ 121.108659696000018, 14.579912390000061 ], [ 121.108765454000036, 14.580089419000046 ], [ 121.10903616500002, 14.579963428000042 ], [ 121.111780519000035, 14.580213444000037 ], [ 121.111840619000077, 14.580045076000033 ] ] ] ] } },
{ "type": "Feature", "properties": { "OBJECTID": 12592, "ADM4_EN": "San Isidro", "ADM4_PCODE": "PH0405805015", "ADM4_REF": null, "ADM3_EN": "Cainta", "ADM3_PCODE": "PH0405805", "ADM2_EN": "Rizal", "ADM2_PCODE": "PH04058", "ADM1_EN": "Region IV-A (Calabarzon)", "ADM1_PCODE": "PH04", "ADM0_EN": "Philippines (the)", "ADM0_PCODE": "PH", "date": "2022-11-09T00:00:00Z", "validOn": "2023-11-06T00:00:00Z", "validTo": null, "Shape_Length": 0.21959957188065349, "Shape_Area": 0.00053441240504708122, "AREA_SQKM": 6.3708967565870624 }, "geometry": { "type": "MultiPolygon", "coordinates": [ [ [ [ 121.132218038000019, 14.59590378200005 ], [ 121.132821044000025, 14.59531479900005 ], [ 121.133455603000016, 14.595777572000031 ], [ 121.133646813000041, 14.595473905000063 ], [ 121.13334588500004, 14.595239035000077 ], [ 121.133184412000105, 14.595018844000037 ], [ 121.132956881000041, 14.595040863000065 ], [ 121.132824767000102, 14.594916089000037 ], [ 121.132802748000017, 14.594732596000028 ], [ 121.132868805000044, 14.594439009000041 ], [ 121.13293486200007, 14.59417478000006 ], [ 121.132055946000037, 14.593975964000037 ], [ 121.13161371800004, 14.593873852000058 ], [ 121.131121958000108, 14.59372705800007 ], [ 121.130960203000086, 14.593734181000059 ], [ 121.129756775000033, 14.593756417000066 ], [ 121.129777723000075, 14.593296402000021 ], [ 121.129797818000043, 14.592855144000055 ], [ 121.129816658000095, 14.59228005500006 ], [ 121.130116950000115, 14.590702035000049 ], [ 121.129957754000088, 14.59017562300005 ], [ 121.129923075000079, 14.590060953000034 ], [ 121.129830216000073, 14.589473371000054 ], [ 121.130040916000098, 14.589351848000035 ], [ 121.129971361000116, 14.589095610000072 ], [ 121.129985509000107, 14.588917711000022 ], [ 121.130160433000015, 14.588779612000053 ], [ 121.13034506300005, 14.588733911000077 ], [ 121.131016644000056, 14.588816438000038 ], [ 121.131106921000082, 14.588285760000076 ], [ 121.131271243000015, 14.587852546000022 ], [ 121.130585786000097, 14.587195365000071 ], [ 121.13044440200008, 14.587327323000068 ], [ 121.13014278300011, 14.587346174000061 ], [ 121.129860016000066, 14.587270769000042 ], [ 121.129633802000058, 14.587327323000068 ], [ 121.129407588000049, 14.587383876000047 ], [ 121.12919080000006, 14.587591239000062 ], [ 121.129087118000029, 14.587610090000055 ], [ 121.129011714000058, 14.587449855000045 ], [ 121.128917458000046, 14.587308472000075 ], [ 121.128738372000043, 14.587167088000058 ], [ 121.128417902000024, 14.587053981000054 ], [ 121.128342497000062, 14.586978576000035 ], [ 121.128361349000102, 14.586818341000026 ], [ 121.128301786000065, 14.586678357000039 ], [ 121.128172837000079, 14.586686383000028 ], [ 121.128031453000062, 14.586724086000061 ], [ 121.127984325000057, 14.586865469000031 ], [ 121.127918346000115, 14.586922023000056 ], [ 121.127710984000032, 14.586846618000038 ], [ 121.127531898000029, 14.586799490000033 ], [ 121.127352811000037, 14.586903172000063 ], [ 121.127098321000062, 14.587016279000068 ], [ 121.126881532000084, 14.587016279000068 ], [ 121.126796702000092, 14.58693144800003 ], [ 121.12661761600009, 14.586922023000056 ], [ 121.126504509000029, 14.587006853000048 ], [ 121.126372551000031, 14.587119960000052 ], [ 121.126202891000048, 14.587157662000038 ], [ 121.12598610200007, 14.587101109000059 ], [ 121.125957826000104, 14.586629830000049 ], [ 121.125816442000087, 14.586563851000051 ], [ 121.125590228000078, 14.586563851000051 ], [ 121.125458270000081, 14.586422467000034 ], [ 121.12534516300002, 14.586177402000033 ], [ 121.125269758000059, 14.586017167000023 ], [ 121.125298035000014, 14.585838081000077 ], [ 121.125458270000081, 14.585479909000071 ], [ 121.125514823000117, 14.585150014000021 ], [ 121.125477121000017, 14.584876672000064 ], [ 121.125392291000026, 14.584678735000068 ], [ 121.125382865, 14.584433669000077 ], [ 121.125250907, 14.584188604000076 ], [ 121.125118949000012, 14.584000093000043 ], [ 121.125071821, 14.58383043200007 ], [ 121.124873884000067, 14.583755028000041 ], [ 121.1247513510001, 14.583679623000023 ], [ 121.124758411000016, 14.583489008000072 ], [ 121.123857656000041, 14.583776690000036 ], [ 121.123236799000097, 14.58397586500007 ], [ 121.1212665380001, 14.584602908000022 ], [ 121.120309543000076, 14.584900582000046 ], [ 121.119908240000086, 14.585030777000043 ], [ 121.117597554000099, 14.585763199000041 ], [ 121.117421541000112, 14.585817622000036 ], [ 121.117357120000065, 14.585837540000057 ], [ 121.117283576000091, 14.585860280000077 ], [ 121.11729192700011, 14.586057828000037 ], [ 121.117303948000085, 14.586244157000067 ], [ 121.117350414000043, 14.586417347000065 ], [ 121.117370065000046, 14.586490593000065 ], [ 121.117424161000031, 14.586634848000074 ], [ 121.117442193000102, 14.586863252000057 ], [ 121.117334001000017, 14.586959423000053 ], [ 121.11712964000003, 14.586953412000071 ], [ 121.116901236000103, 14.587001497000074 ], [ 121.116720917000066, 14.587067614000034 ], [ 121.116636768000035, 14.587320060000025 ], [ 121.1165586300001, 14.587512401000026 ], [ 121.11658267200005, 14.587614581000025 ], [ 121.116662597000072, 14.587766576000035 ], [ 121.116805066000097, 14.587758837000024 ], [ 121.116919268000061, 14.587704741000039 ], [ 121.11706352300007, 14.587572507000061 ], [ 121.117171714000051, 14.587458305000041 ], [ 121.117267884000057, 14.587458305000041 ], [ 121.117406129000074, 14.587596549000068 ], [ 121.117544373000101, 14.587800911000045 ], [ 121.11758954600009, 14.588031792000038 ], [ 121.117598469000086, 14.588077400000032 ], [ 121.117634533000114, 14.58836591000005 ], [ 121.117640544000096, 14.588660431000051 ], [ 121.117562405000058, 14.588960963000034 ], [ 121.117412140000056, 14.589033090000044 ], [ 121.117183736000015, 14.589093197000068 ], [ 121.116943310000011, 14.588978995000048 ], [ 121.116750970000112, 14.589033090000044 ], [ 121.116546609000011, 14.589123250000057 ], [ 121.116466652000099, 14.589233032000038 ], [ 121.11652498300009, 14.589347126000064 ], [ 121.116680268000096, 14.58942765200004 ], [ 121.116714390000084, 14.589556841000046 ], [ 121.11675613400007, 14.589718222000045 ], [ 121.116670189000047, 14.589944815000024 ], [ 121.116632514000116, 14.590203273000043 ], [ 121.11655844400002, 14.590532375000066 ], [ 121.116456594000056, 14.590840151000066 ], [ 121.116396488000078, 14.591109147000054 ], [ 121.116299512000069, 14.591333023000061 ], [ 121.116294162000031, 14.591485428000055 ], [ 121.116378311000062, 14.591665747000036 ], [ 121.116564641000082, 14.591725853000071 ], [ 121.11681107600009, 14.591882130000045 ], [ 121.116991395000014, 14.592224736000048 ], [ 121.117476263000071, 14.592030435000027 ], [ 121.117999181000073, 14.592084905000036 ], [ 121.118293322000113, 14.591965070000072 ], [ 121.118500311000048, 14.59201954100007 ], [ 121.118722716000093, 14.592209992000051 ], [ 121.118992509, 14.592496389000075 ], [ 121.119038167000099, 14.592840895000052 ], [ 121.120077308000077, 14.592952122000042 ], [ 121.120077308000077, 14.593359980000059 ], [ 121.120515806000071, 14.59331822200005 ], [ 121.120292916000039, 14.594609467000055 ], [ 121.12045093800009, 14.59462535800003 ], [ 121.120866816000103, 14.594655937000027 ], [ 121.12168022600008, 14.594796602000031 ], [ 121.122089989000074, 14.594894456000077 ], [ 121.122469172000024, 14.594961730000023 ], [ 121.122885051000026, 14.595065700000077 ], [ 121.122964557000046, 14.594698748000042 ], [ 121.123037948000047, 14.594331796000063 ], [ 121.12309782400007, 14.594045018000031 ], [ 121.12326104400006, 14.594111213000076 ], [ 121.123522503000117, 14.594133001000046 ], [ 121.12362879300008, 14.594177226000056 ], [ 121.123747494000099, 14.594216110000048 ], [ 121.124034014000017, 14.594240669000044 ], [ 121.124115876000019, 14.594281600000045 ], [ 121.124324626000089, 14.594308206000051 ], [ 121.124324124000054, 14.594115377000037 ], [ 121.124812157000065, 14.594224935000057 ], [ 121.125419708000095, 14.594354413000076 ], [ 121.126057138000078, 14.594493851000038 ], [ 121.126425653000069, 14.594533691000038 ], [ 121.12679416800006, 14.594752807000077 ], [ 121.127411679000033, 14.59527072000003 ], [ 121.127790153000092, 14.59542011800005 ], [ 121.128238347000092, 14.595579475000022 ], [ 121.129383730000086, 14.595718913000042 ], [ 121.130203534000088, 14.59615199700005 ], [ 121.13082457400003, 14.596449041000028 ], [ 121.131017310000061, 14.596469765000052 ], [ 121.131524136000053, 14.596490489000075 ], [ 121.132102346000011, 14.596297065000044 ], [ 121.132292279000012, 14.596239738000065 ], [ 121.132182979000049, 14.596012464000069 ], [ 121.132218038000019, 14.59590378200005 ] ] ], [ [ [ 121.110778683000035, 14.635865803000058 ], [ 121.110842451000053, 14.635863712000059 ], [ 121.110906460000024, 14.635876024000027 ], [ 121.111105114000111, 14.635857104000024 ], [ 121.111303769000074, 14.63597062100007 ], [ 121.111511883000048, 14.63602738000003 ], [ 121.11167269900011, 14.636065219000045 ], [ 121.11168525800008, 14.63592353100006 ], [ 121.111706316000095, 14.635834127000066 ], [ 121.111703057000113, 14.63569119400006 ], [ 121.111669453000104, 14.635546703000045 ], [ 121.111634189000029, 14.635420629000066 ], [ 121.111595991000058, 14.635226150000051 ], [ 121.111565212000073, 14.635000841000021 ], [ 121.111508917000037, 14.635017066000046 ], [ 121.111469771000088, 14.634908123000059 ], [ 121.11134182, 14.634534342000052 ], [ 121.111070029000075, 14.633817863000047 ], [ 121.111035847000039, 14.633793538000077 ], [ 121.110957044000088, 14.63354070400004 ], [ 121.110890348000112, 14.633567810000045 ], [ 121.110809105000044, 14.633178100000066 ], [ 121.110075155000118, 14.630779122000035 ], [ 121.110027178000109, 14.63062698300007 ], [ 121.10975368600009, 14.629648899000074 ], [ 121.109487254000101, 14.628685060000066 ], [ 121.109232251000094, 14.626849507000031 ], [ 121.108808214000078, 14.626836635000075 ], [ 121.108813882000049, 14.626754455000025 ], [ 121.108627765000051, 14.626759423000067 ], [ 121.108622083000114, 14.626617385000031 ], [ 121.108610720000115, 14.626492392000046 ], [ 121.108610720000115, 14.626338991000068 ], [ 121.108525446000044, 14.626145760000043 ], [ 121.108349371000031, 14.625935604000063 ], [ 121.10837777800009, 14.625469720000069 ], [ 121.108394823000026, 14.625316319000035 ], [ 121.108213014000057, 14.624998154000025 ], [ 121.107980072000032, 14.624532270000032 ], [ 121.107769856000118, 14.624151609000023 ], [ 121.107730970000034, 14.623761472000069 ], [ 121.108180717000096, 14.62374741800005 ], [ 121.108163149, 14.623554167000066 ], [ 121.108416132000116, 14.623462812000071 ], [ 121.108430186000078, 14.62304468800005 ], [ 121.108521541000073, 14.622949819000041 ], [ 121.108560191000038, 14.622756569000046 ], [ 121.108542623000062, 14.622471963000066 ], [ 121.108550200000082, 14.622214400000075 ], [ 121.108540750000088, 14.621949091000033 ], [ 121.10713046300009, 14.621660929000029 ], [ 121.107108624000034, 14.621008490000065 ], [ 121.107200769000087, 14.620743573000027 ], [ 121.107304432000092, 14.620305884000061 ], [ 121.107500240000036, 14.619200144000047 ], [ 121.10752065500003, 14.619046504000039 ], [ 121.107539619000022, 14.618941131000042 ], [ 121.106912476000048, 14.618863806000036 ], [ 121.106812669000078, 14.618586275000041 ], [ 121.106793554000092, 14.618230715000038 ], [ 121.107865700000048, 14.618342200000029 ], [ 121.108361182000067, 14.618374065000069 ], [ 121.108872450000035, 14.618395888000066 ], [ 121.109111789000053, 14.618410544000028 ], [ 121.110166, 14.618475100000069 ], [ 121.11056080000003, 14.61850830000003 ], [ 121.110972800000013, 14.618549800000039 ], [ 121.111608904000036, 14.618484290000026 ], [ 121.11159633200009, 14.618177885000023 ], [ 121.111508043000072, 14.617248559000075 ], [ 121.112374309000074, 14.617163855000058 ], [ 121.112345723000089, 14.616755861000058 ], [ 121.111434618000089, 14.616805402000068 ], [ 121.111450554000044, 14.616330492000031 ], [ 121.111746903000039, 14.616296160000047 ], [ 121.112192545000084, 14.616311597000049 ], [ 121.112684353000077, 14.616280723000045 ], [ 121.11335340800008, 14.61622840900003 ], [ 121.113369153, 14.615875355000071 ], [ 121.113759802000118, 14.615785944000038 ], [ 121.113634185000024, 14.614425595000057 ], [ 121.113943870000071, 14.614285636000034 ], [ 121.114096821000089, 14.614352309000026 ], [ 121.11420983000005, 14.614387863000047 ], [ 121.114349123000011, 14.614530941000055 ], [ 121.114440026000011, 14.614603214000056 ], [ 121.114556275000041, 14.614773034000052 ], [ 121.11460136200003, 14.614842583000041 ], [ 121.114716007000084, 14.614775143000031 ], [ 121.114827381000055, 14.614668446000053 ], [ 121.114933545000099, 14.61467949300004 ], [ 121.115070567000089, 14.614761742000042 ], [ 121.115182197000081, 14.614807559000042 ], [ 121.115345006000098, 14.614887177000071 ], [ 121.11549465600001, 14.614988913000047 ], [ 121.115536740000039, 14.615115853000077 ], [ 121.11560359900011, 14.615284906000056 ], [ 121.115977360000102, 14.615198559000078 ], [ 121.116205316000105, 14.615060347000053 ], [ 121.116336097000044, 14.61499615300005 ], [ 121.116495225000108, 14.615018796000072 ], [ 121.116572470000051, 14.615129102000026 ], [ 121.116655925000032, 14.615174203000038 ], [ 121.116812449, 14.615163249000034 ], [ 121.11698096300006, 14.615185891000067 ], [ 121.117157195000118, 14.615241121000054 ], [ 121.117212064000114, 14.615366236000057 ], [ 121.117268537000086, 14.615372080000043 ], [ 121.117345481000029, 14.61528811900007 ], [ 121.117519871000013, 14.615339646000052 ], [ 121.117644133000113, 14.61537577200005 ], [ 121.117725419000067, 14.615399404000073 ], [ 121.117967668, 14.615492178000068 ], [ 121.118200135000052, 14.615529630000026 ], [ 121.118289434000076, 14.615542052000023 ], [ 121.118439113000022, 14.615539421000051 ], [ 121.118597876000081, 14.615551110000069 ], [ 121.118811477, 14.615467393000074 ], [ 121.118961187000082, 14.615418590000047 ], [ 121.119213458000104, 14.615445424000029 ], [ 121.119392961000017, 14.61550386600004 ], [ 121.119580342000063, 14.615456194000046 ], [ 121.119727750000038, 14.615536882000072 ], [ 121.119876126, 14.615578526000036 ], [ 121.119829568000114, 14.615203702000031 ], [ 121.119860600000038, 14.615180400000042 ], [ 121.119956937000097, 14.615102498000056 ], [ 121.12062787900004, 14.615050488000065 ], [ 121.120976027000097, 14.614959170000077 ], [ 121.121095166000032, 14.614931913000078 ], [ 121.121768824000014, 14.614771161000021 ], [ 121.121890828000119, 14.614713980000033 ], [ 121.122334340000066, 14.614445722000028 ], [ 121.12250304500003, 14.61446882000007 ], [ 121.122829167000077, 14.614330858000073 ], [ 121.123061930000063, 14.614950387000022 ], [ 121.123961253000061, 14.614215735000073 ], [ 121.124818339000058, 14.614126064000061 ], [ 121.124686843000063, 14.612714079000057 ], [ 121.12424093300001, 14.612623677000045 ], [ 121.123931667000079, 14.612219802000027 ], [ 121.123829113000056, 14.611692396000024 ], [ 121.123764428000072, 14.611038068000028 ], [ 121.123754145000021, 14.610737156000027 ], [ 121.124240144000055, 14.61077199500005 ], [ 121.124260188000108, 14.611132793000024 ], [ 121.124512903000095, 14.611142519000055 ], [ 121.124569057000031, 14.610989552000035 ], [ 121.124722419000022, 14.610758709000038 ], [ 121.124849971000117, 14.610744026000077 ], [ 121.125228518000085, 14.610564263000072 ], [ 121.126821541000027, 14.610031475000028 ], [ 121.127143142000023, 14.610024747000068 ], [ 121.127306284000042, 14.610069949000035 ], [ 121.127484034000076, 14.610120725000058 ], [ 121.127443743000072, 14.610399376000032 ], [ 121.127354360000027, 14.610817757000063 ], [ 121.127079900000012, 14.611029960000053 ], [ 121.126757360000056, 14.611454511000034 ], [ 121.126844214000016, 14.611859774000038 ], [ 121.126926957000023, 14.612203163000061 ], [ 121.126976215000013, 14.612426715000026 ], [ 121.126975917000095, 14.612673382000025 ], [ 121.12714706700001, 14.612664554000048 ], [ 121.127150286000074, 14.612510562000068 ], [ 121.127194213000053, 14.612515384000062 ], [ 121.127734909000083, 14.612558733000071 ], [ 121.12773628900004, 14.612705579000021 ], [ 121.127906848000066, 14.613058538000075 ], [ 121.127573811000047, 14.61305298700006 ], [ 121.127610210000057, 14.613596422000057 ], [ 121.127640536000058, 14.614313794000054 ], [ 121.12780951000002, 14.61433338300003 ], [ 121.127790045000097, 14.614468313000032 ], [ 121.127936740000109, 14.61453909200003 ], [ 121.127931867000029, 14.614735961000065 ], [ 121.128622656000061, 14.61481606600006 ], [ 121.128622539000048, 14.61481681600003 ], [ 121.128622859000075, 14.614816853000036 ], [ 121.128570662000016, 14.615150409000023 ], [ 121.12920315000008, 14.615287349000027 ], [ 121.12938552300011, 14.615324644000054 ], [ 121.129706635000048, 14.615373779000038 ], [ 121.130251537000049, 14.615371847000063 ], [ 121.130634320000013, 14.615400833000024 ], [ 121.131641595000019, 14.61547710800005 ], [ 121.132019749000051, 14.614740778000055 ], [ 121.132449958000052, 14.614244555000028 ], [ 121.13270598500003, 14.613943654000025 ], [ 121.132862143000011, 14.613748332000057 ], [ 121.133010210000066, 14.613508224000043 ], [ 121.133116896000047, 14.61322915900007 ], [ 121.133454410000013, 14.612334363000059 ], [ 121.13353044400003, 14.612035563000063 ], [ 121.132852465000042, 14.611919316000069 ], [ 121.132771261000016, 14.611677712000073 ], [ 121.132451450000076, 14.610726186000022 ], [ 121.13221533400008, 14.610543318000055 ], [ 121.131929833000072, 14.610196806000033 ], [ 121.131051900000102, 14.609295678000024 ], [ 121.130901782000024, 14.608325194000031 ], [ 121.130869222000115, 14.607687046000024 ], [ 121.130785859000071, 14.607265734000066 ], [ 121.130602661000012, 14.607118666000076 ], [ 121.130563216000041, 14.606839919000038 ], [ 121.130609059000108, 14.606654632000073 ], [ 121.130646195000054, 14.606384221000042 ], [ 121.130800141, 14.605874524000058 ], [ 121.130257516000029, 14.605739824000068 ], [ 121.130170808000116, 14.605545053000071 ], [ 121.130090715000051, 14.605435836000026 ], [ 121.130199933000085, 14.605093620000048 ], [ 121.130345556000066, 14.604955278000034 ], [ 121.130068455000014, 14.604903508000064 ], [ 121.128611781000018, 14.606586029000027 ], [ 121.128580046000025, 14.607337833000031 ], [ 121.128579064000064, 14.607337562000055 ], [ 121.128579063000075, 14.607337589000053 ], [ 121.128191385000036, 14.607231275000061 ], [ 121.128190148000044, 14.607230936000065 ], [ 121.127748826000015, 14.607211628000073 ], [ 121.127290954000046, 14.607190481000032 ], [ 121.127290975000051, 14.607190033000052 ], [ 121.127290612000024, 14.607190016000061 ], [ 121.127299229000073, 14.607009355000059 ], [ 121.127302907000058, 14.606918333000067 ], [ 121.1273075040001, 14.606846618000077 ], [ 121.127281760000074, 14.606705947000023 ], [ 121.127161765000096, 14.60605724100003 ], [ 121.126687042000071, 14.60600176500003 ], [ 121.126331654000069, 14.606199461000074 ], [ 121.12571713300008, 14.605773456000065 ], [ 121.124775753000108, 14.606106185000044 ], [ 121.123339338000051, 14.605643611000062 ], [ 121.12302284000009, 14.605676072000051 ], [ 121.122509620000073, 14.605790440000021 ], [ 121.121669779000058, 14.606136227000036 ], [ 121.121526440000025, 14.605677981000042 ], [ 121.121302116000038, 14.605676018000054 ], [ 121.121179140000095, 14.605266120000067 ], [ 121.121189848000085, 14.605055426000035 ], [ 121.12119228600011, 14.604825715000061 ], [ 121.121218579000015, 14.604359018000025 ], [ 121.120804467000085, 14.604082944000027 ], [ 121.120830760000104, 14.603359891000025 ], [ 121.120429795000064, 14.603386184000044 ], [ 121.120002537000119, 14.603379611000037 ], [ 121.119588425000074, 14.60341905000007 ], [ 121.119187460000035, 14.60345191600004 ], [ 121.118129175000036, 14.603511075000029 ], [ 121.117695343000037, 14.603589953000039 ], [ 121.117333817000031, 14.603622819000066 ], [ 121.117353537000099, 14.603110110000046 ], [ 121.116755376000015, 14.603083817000027 ], [ 121.116380703000118, 14.603090390000034 ], [ 121.115946872000109, 14.603090390000034 ], [ 121.115588843000069, 14.603105008000057 ], [ 121.114265787000022, 14.60312459000005 ], [ 121.114078333000066, 14.603030720000049 ], [ 121.11387197900001, 14.602708808000045 ], [ 121.11369959700005, 14.602358707000064 ], [ 121.11328654600004, 14.601639693000038 ], [ 121.112001500000019, 14.601333730000022 ], [ 121.109729721, 14.600859486000047 ], [ 121.109436065000068, 14.600791559000072 ], [ 121.109558793000019, 14.601025328000048 ], [ 121.109430220000036, 14.601212343000043 ], [ 121.109436065000068, 14.601329227000065 ], [ 121.10962308, 14.601510399000063 ], [ 121.10978087400008, 14.601650660000075 ], [ 121.109821784000019, 14.601750012000025 ], [ 121.109675678000031, 14.601890273000038 ], [ 121.109564638000052, 14.602048067000055 ], [ 121.109459442000116, 14.602141575000076 ], [ 121.1093250240001, 14.602106510000056 ], [ 121.109155542000053, 14.602129887000046 ], [ 121.109091255000067, 14.602351967000061 ], [ 121.109126321000076, 14.602538983000045 ], [ 121.106821, 14.601586876000056 ], [ 121.106569821000107, 14.601981536000039 ], [ 121.106312649000074, 14.602412921000052 ], [ 121.105993258000012, 14.602952153000047 ], [ 121.105860524000036, 14.603151254000068 ], [ 121.105719494000027, 14.603391834000035 ], [ 121.105657275000112, 14.603549455000064 ], [ 121.105590908000067, 14.603731965000065 ], [ 121.105514999000093, 14.603976017000036 ], [ 121.105360115000053, 14.604499887000031 ], [ 121.105244268000092, 14.604792054000029 ], [ 121.105105600000115, 14.605328919000044 ], [ 121.105026039000109, 14.605594965000023 ], [ 121.104705416000115, 14.606618394000066 ], [ 121.104668751000077, 14.606738461000077 ], [ 121.104634999000041, 14.606856592000042 ], [ 121.104229450000048, 14.60813110600003 ], [ 121.104158588000018, 14.608365045000028 ], [ 121.104067360000045, 14.608679647000031 ], [ 121.104021453000087, 14.608849502000055 ], [ 121.103929640000047, 14.609134125000026 ], [ 121.103911004000111, 14.60920408000004 ], [ 121.103828645000021, 14.609460063000029 ], [ 121.103795282000078, 14.609575022000058 ], [ 121.103723059000117, 14.609790593000071 ], [ 121.103640496000025, 14.610075209000058 ], [ 121.103584098000056, 14.61026681900006 ], [ 121.103539431000058, 14.610419517000025 ], [ 121.103364871000053, 14.610986671000035 ], [ 121.103223795000076, 14.61145726500007 ], [ 121.103098564000106, 14.611851375000072 ], [ 121.103088565, 14.611889172000076 ], [ 121.102191463000054, 14.614759528000036 ], [ 121.102059699000051, 14.615216635000024 ], [ 121.101932758000089, 14.615649672000075 ], [ 121.10166670000001, 14.616932567000049 ], [ 121.101650555000106, 14.617076987000075 ], [ 121.101623201000052, 14.617594174000033 ], [ 121.101644406000105, 14.618594488000042 ], [ 121.101680670000064, 14.61898427400007 ], [ 121.101878665000072, 14.620657343000062 ], [ 121.102455745000043, 14.620804632000045 ], [ 121.10412, 14.62117 ], [ 121.104522921000012, 14.621256322000022 ], [ 121.104959842000085, 14.621358134000047 ], [ 121.104920287000027, 14.621502676000034 ], [ 121.104874929000061, 14.621585949000064 ], [ 121.104857785000036, 14.621627680000074 ], [ 121.10475361500005, 14.621825603000048 ], [ 121.104691113000058, 14.622044361000064 ], [ 121.104555692000076, 14.62222145000004 ], [ 121.104430688000093, 14.622356871000022 ], [ 121.104399437000097, 14.622481875000062 ], [ 121.104482773000086, 14.622627713000043 ], [ 121.104628611000066, 14.622783969000068 ], [ 121.104680696000059, 14.622940224000047 ], [ 121.104732781000052, 14.623117313000023 ], [ 121.104816117000041, 14.623242317000063 ], [ 121.104836236000097, 14.623409073000062 ], [ 121.104784866000045, 14.62360691300006 ], [ 121.104639028000065, 14.623784002000036 ], [ 121.104649445000064, 14.623919423000075 ], [ 121.104711947000055, 14.62410692900005 ], [ 121.104576526000073, 14.624304853000069 ], [ 121.104389020000099, 14.624481942000045 ], [ 121.104201513000021, 14.62459652900003 ], [ 121.103990208000027, 14.624620055000037 ], [ 121.103972339000052, 14.624888205000047 ], [ 121.104003590000048, 14.625086129000067 ], [ 121.103889003000063, 14.625263218000043 ], [ 121.103930671000057, 14.625429890000078 ], [ 121.103993173000049, 14.625575728000058 ], [ 121.104055675000041, 14.625794485000029 ], [ 121.104082502000097, 14.625949190000028 ], [ 121.104073591000088, 14.626045907000048 ], [ 121.104062611000018, 14.626154731000042 ], [ 121.103939696000111, 14.626429650000034 ], [ 121.103836625000099, 14.62670819300007 ], [ 121.104129473000057, 14.626954623000074 ], [ 121.10437613900001, 14.627236616000062 ], [ 121.104645228000095, 14.62745353300005 ], [ 121.104779773000018, 14.627865676000056 ], [ 121.104914318000056, 14.628364585000043 ], [ 121.104959166000071, 14.629015337000055 ], [ 121.104989438000075, 14.629394901000069 ], [ 121.105034042000057, 14.629886167000052 ], [ 121.105051901000024, 14.629953140000055 ], [ 121.105145662000041, 14.630011182000032 ], [ 121.105275142000096, 14.630046901000071 ], [ 121.105409087000112, 14.630073690000074 ], [ 121.105444805000047, 14.630185310000059 ], [ 121.105476059000011, 14.630319255000074 ], [ 121.105493918000093, 14.630417481000052 ], [ 121.105534101000103, 14.630569285000036 ], [ 121.105520707000096, 14.630663046000052 ], [ 121.105502848000015, 14.630783596000072 ], [ 121.105484989000047, 14.630975583000065 ], [ 121.10546712900009, 14.631105063000064 ], [ 121.105471594000051, 14.631247937000069 ], [ 121.105520707000096, 14.631377417000067 ], [ 121.105578750000063, 14.631435459000045 ], [ 121.105650187000037, 14.631556009000064 ], [ 121.105690370000048, 14.631649770000024 ], [ 121.105726089000086, 14.631734602000051 ], [ 121.105801991000021, 14.631917659000067 ], [ 121.105815385000028, 14.63202928000004 ], [ 121.105739483000093, 14.632096252000053 ], [ 121.105676976000041, 14.632176619000063 ], [ 121.105596609000031, 14.632239126000059 ], [ 121.105502848000015, 14.632319493000068 ], [ 121.105458200000044, 14.632413254000028 ], [ 121.105462664000015, 14.632524875000058 ], [ 121.105498383000054, 14.632654354000067 ], [ 121.105578750000063, 14.632699003000027 ], [ 121.105663581000044, 14.632779369000048 ], [ 121.10567251100008, 14.632882060000043 ], [ 121.105699300000083, 14.632949032000056 ], [ 121.105699300000083, 14.633016005000059 ], [ 121.105748413000015, 14.633069582000076 ], [ 121.105788596000025, 14.633145484000067 ], [ 121.105855568000038, 14.633207992000052 ], [ 121.105864498000074, 14.633301753000069 ], [ 121.105890444000011, 14.633347035000043 ], [ 121.106680682000047, 14.634181932000047 ], [ 121.106872620000104, 14.634448512000063 ], [ 121.106957925000074, 14.634640450000063 ], [ 121.107075221000059, 14.634747082000047 ], [ 121.1071392, 14.634939020000047 ], [ 121.107149863000018, 14.635184274000039 ], [ 121.107277822000015, 14.635344222000072 ], [ 121.107427107000035, 14.63552549700006 ], [ 121.107576392000055, 14.635632129000044 ], [ 121.107693687000051, 14.635802741000077 ], [ 121.107800320000024, 14.635984015000076 ], [ 121.107949605000044, 14.636101311000061 ], [ 121.108162869000012, 14.636261259000037 ], [ 121.108344144000057, 14.636399881000045 ], [ 121.108536082000114, 14.636495850000074 ], [ 121.108692880000035, 14.636471988000039 ], [ 121.10897667200004, 14.636405770000067 ], [ 121.109156407000114, 14.636386850000065 ], [ 121.109440199000119, 14.636339551000049 ], [ 121.109667233000096, 14.636330092000037 ], [ 121.109846968000056, 14.636311172000035 ], [ 121.110092922000035, 14.636235494000061 ], [ 121.110319955000023, 14.636112518000061 ], [ 121.110509150000098, 14.636046299000043 ], [ 121.110717265000062, 14.635876024000027 ], [ 121.110778683000035, 14.635865803000058 ] ] ] ] } },
{ "type": "Feature", "properties": { "OBJECTID": 12593, "ADM4_EN": "San Juan", "ADM4_PCODE": "PH0405805016", "ADM4_REF": null, "ADM3_EN": "Cainta", "ADM3_PCODE": "PH0405805", "ADM2_EN": "Rizal", "ADM2_PCODE": "PH04058", "ADM1_EN": "Region IV-A (Calabarzon)", "ADM1_PCODE": "PH04", "ADM0_EN": "Philippines (the)", "ADM0_PCODE": "PH", "date": "2022-11-09T00:00:00Z", "validOn": "2023-11-06T00:00:00Z", "validTo": null, "Shape_Length": 0.19227700345425541, "Shape_Area": 0.00043336945816577216, "AREA_SQKM": 5.1669640383065136 }, "geometry": { "type": "MultiPolygon", "coordinates": [ [ [ [ 121.136403926000071, 14.599633005000044 ], [ 121.136583064000092, 14.598910856000032 ], [ 121.136743969, 14.598409741000069 ], [ 121.136919318000082, 14.598068959000045 ], [ 121.137078215000088, 14.597654256000055 ], [ 121.137241825000046, 14.597169526000073 ], [ 121.137069999000119, 14.596859107000057 ], [ 121.13708427600011, 14.596700222000038 ], [ 121.137123770000017, 14.596375170000044 ], [ 121.137062318000062, 14.595983412000066 ], [ 121.136924050000061, 14.595637743000054 ], [ 121.136831872000016, 14.595522520000031 ], [ 121.136854916000061, 14.595361208000043 ], [ 121.136970139000027, 14.595238303000031 ], [ 121.137369579000051, 14.595038583000076 ], [ 121.137769019000075, 14.59487727100003 ], [ 121.137893350000013, 14.595065086000034 ], [ 121.138069889, 14.595130126000072 ], [ 121.138218375000065, 14.595070652000061 ], [ 121.138365054000019, 14.595304745000021 ], [ 121.138468632000013, 14.595463914000049 ], [ 121.138575886000012, 14.595702254000059 ], [ 121.138885728000105, 14.596119350000038 ], [ 121.139040649000094, 14.596524529000021 ], [ 121.139314741000021, 14.597120380000035 ], [ 121.139564998000083, 14.597275301000025 ], [ 121.141638560000047, 14.597942655000054 ], [ 121.141960320000067, 14.597918820000075 ], [ 121.142389333000096, 14.597775816000023 ], [ 121.142913682000085, 14.597322969000061 ], [ 121.143043722000016, 14.597095172000024 ], [ 121.143282172000113, 14.596918257000027 ], [ 121.143499736000081, 14.596839873000022 ], [ 121.143580508000014, 14.596811306000063 ], [ 121.14368984500004, 14.596772110000074 ], [ 121.143943679000017, 14.596702883000034 ], [ 121.144228281000096, 14.596556736000025 ], [ 121.14454365000006, 14.596418281000069 ], [ 121.144759025000099, 14.596349054000029 ], [ 121.145135930000038, 14.596364437000034 ], [ 121.145420531000013, 14.596472125000048 ], [ 121.1455128, 14.596538700000053 ], [ 121.145662900000048, 14.596682 ], [ 121.146358100000043, 14.596366400000022 ], [ 121.146890300000109, 14.596283300000039 ], [ 121.147122, 14.596042400000044 ], [ 121.147143902000039, 14.59585732000005 ], [ 121.147156400000085, 14.595751700000051 ], [ 121.147138537000046, 14.595692317000044 ], [ 121.147559700000102, 14.595534 ], [ 121.147715457000118, 14.595267739000064 ], [ 121.147860100000116, 14.594936 ], [ 121.148040300000048, 14.594686800000034 ], [ 121.148263500000098, 14.594512300000076 ], [ 121.148435100000029, 14.594371100000046 ], [ 121.148460900000032, 14.594171800000026 ], [ 121.148409400000105, 14.593922600000042 ], [ 121.14835533400003, 14.593807506000076 ], [ 121.148246300000096, 14.593590400000039 ], [ 121.148134700000014, 14.593415900000025 ], [ 121.148006, 14.593150100000059 ], [ 121.14801215600005, 14.593081743000027 ], [ 121.148023200000011, 14.59295910000003 ], [ 121.148100400000089, 14.592809600000066 ], [ 121.148184878000052, 14.592713158000038 ], [ 121.14822214600008, 14.592670613000053 ], [ 121.148269670000104, 14.592616358000043 ], [ 121.148333170000114, 14.592543866000028 ], [ 121.148435100000029, 14.592427500000042 ], [ 121.148581100000115, 14.592319500000031 ], [ 121.148701200000119, 14.592319500000031 ], [ 121.148795600000085, 14.592369400000052 ], [ 121.148847100000012, 14.592510600000026 ], [ 121.148872900000015, 14.592718200000036 ], [ 121.148915800000054, 14.592884300000037 ], [ 121.14905310000006, 14.593067100000042 ], [ 121.149070796000046, 14.59310656200006 ], [ 121.149109045000046, 14.593191856000033 ], [ 121.149188919000039, 14.593369974000041 ], [ 121.149250500000107, 14.593507300000056 ], [ 121.149327800000037, 14.593681700000047 ], [ 121.149447900000041, 14.593781400000069 ], [ 121.14956810000001, 14.593839500000058 ], [ 121.149705400000016, 14.593781400000069 ], [ 121.149868500000025, 14.593715 ], [ 121.150100300000076, 14.593681700000047 ], [ 121.150160300000039, 14.593631900000048 ], [ 121.150254800000084, 14.593548800000065 ], [ 121.1502719, 14.593341200000054 ], [ 121.1502719, 14.593133500000022 ], [ 121.150194700000043, 14.592759700000045 ], [ 121.150126000000114, 14.59245240000007 ], [ 121.150134600000115, 14.59217 ], [ 121.150108800000112, 14.591879300000073 ], [ 121.150074500000073, 14.591704900000025 ], [ 121.149351875000093, 14.591527890000066 ], [ 121.148869034000086, 14.591189902000053 ], [ 121.148695212, 14.590591180000047 ], [ 121.147661934000098, 14.590359417000059 ], [ 121.146722688000068, 14.590278311000077 ], [ 121.146326718000068, 14.589795948000074 ], [ 121.144273409000107, 14.589712682000027 ], [ 121.143577897000114, 14.589586796000049 ], [ 121.143179303000011, 14.589371555000071 ], [ 121.142661130000079, 14.589204146000043 ], [ 121.142350227000065, 14.589148342000044 ], [ 121.14073937, 14.589857980000033 ], [ 121.140552289000084, 14.589351158000056 ], [ 121.140397620000044, 14.589272124000047 ], [ 121.140063679000036, 14.589157986000032 ], [ 121.1403790170001, 14.58882953400007 ], [ 121.140644217000045, 14.588646464000021 ], [ 121.140853286000038, 14.588490982000053 ], [ 121.141113667000013, 14.588173644000051 ], [ 121.141259216000094, 14.587840587000073 ], [ 121.141341613, 14.587683641000069 ], [ 121.140800350000063, 14.587111152000034 ], [ 121.14069642700008, 14.586723352000035 ], [ 121.140453292000075, 14.586030945000061 ], [ 121.140220728000031, 14.585423107000054 ], [ 121.140130449000026, 14.585054941000067 ], [ 121.140016819000039, 14.58479359200004 ], [ 121.139852055, 14.584583376000069 ], [ 121.139675928000088, 14.584469746000025 ], [ 121.139552830000071, 14.584137858000076 ], [ 121.139344937000033, 14.584155678000059 ], [ 121.139273659000082, 14.584048761000076 ], [ 121.139297419000059, 14.583894326000063 ], [ 121.139362756000082, 14.583680493000031 ], [ 121.139392455, 14.583413202000031 ], [ 121.139309298000057, 14.583044935000032 ], [ 121.139267720000021, 14.582890500000076 ], [ 121.139142984000046, 14.582771704000038 ], [ 121.138863813000057, 14.582831102000057 ], [ 121.13866186000007, 14.58298553700007 ], [ 121.138739077000082, 14.583229068000037 ], [ 121.138733137000031, 14.583442901000069 ], [ 121.138635873000112, 14.583676039000068 ], [ 121.138275030000045, 14.583956694000051 ], [ 121.137753976000113, 14.584705117000055 ], [ 121.137539980000042, 14.585012494000068 ], [ 121.137473157000045, 14.585266421000028 ], [ 121.136871752000047, 14.585373337000021 ], [ 121.136751471000025, 14.585065952000036 ], [ 121.136762686000111, 14.584527629000036 ], [ 121.136764835, 14.584424454000043 ], [ 121.136818812000115, 14.584018146000062 ], [ 121.136729533000107, 14.58377465600006 ], [ 121.136648369000113, 14.583547399000054 ], [ 121.136559090000105, 14.58320651300005 ], [ 121.136502275000112, 14.582946790000051 ], [ 121.136430581000013, 14.582702398000038 ], [ 121.136434188000067, 14.58256532200005 ], [ 121.134366468000053, 14.583856732000072 ], [ 121.13248959200007, 14.58361267500004 ], [ 121.132156162000115, 14.583534221000036 ], [ 121.131000159000109, 14.581540075000078 ], [ 121.131083633000117, 14.581519920000062 ], [ 121.130700531000116, 14.580361070000038 ], [ 121.130398275000061, 14.579468361000067 ], [ 121.129955435000056, 14.578146870000069 ], [ 121.129864055000098, 14.577837585000054 ], [ 121.130083485000114, 14.577525352000066 ], [ 121.13003474900006, 14.577505252000037 ], [ 121.127189624000039, 14.575880763000043 ], [ 121.127174704000026, 14.575872666000066 ], [ 121.127155236000021, 14.575861596000038 ], [ 121.126368506000063, 14.575430737000033 ], [ 121.126209577000054, 14.575219932000039 ], [ 121.126196478000111, 14.575202557000068 ], [ 121.126006183000072, 14.574959147000072 ], [ 121.126005538000072, 14.574949410000045 ], [ 121.125936551000109, 14.574859361000051 ], [ 121.125836057000015, 14.574720303000049 ], [ 121.125974716000087, 14.574596736000046 ], [ 121.125886577000074, 14.57449246300007 ], [ 121.125843846000066, 14.574441960000058 ], [ 121.125806171000022, 14.574468498000044 ], [ 121.125778399000069, 14.574421953000069 ], [ 121.125647868000101, 14.574526288000072 ], [ 121.125563768, 14.574566782000034 ], [ 121.12550684200005, 14.574484656000038 ], [ 121.125437489000092, 14.574538854000025 ], [ 121.125224444000082, 14.574142867000035 ], [ 121.12498913200011, 14.57367160900003 ], [ 121.124901831000102, 14.573734148000028 ], [ 121.123962487000085, 14.571455212000046 ], [ 121.123898111000017, 14.571294199000022 ], [ 121.123978083000111, 14.571102040000028 ], [ 121.124000558000034, 14.571049902000027 ], [ 121.123880857000017, 14.570647330000043 ], [ 121.123514217000093, 14.569002 ], [ 121.123271939, 14.568504142000052 ], [ 121.123149764000118, 14.567243856000061 ], [ 121.121480574000088, 14.567179033000059 ], [ 121.121360408000101, 14.56642781100004 ], [ 121.120331061000115, 14.563095262000047 ], [ 121.119705109000051, 14.563323095000044 ], [ 121.119359226000029, 14.563438390000044 ], [ 121.119219225000052, 14.563479566000069 ], [ 121.118702641000027, 14.563044842000068 ], [ 121.118531345000065, 14.562471475000052 ], [ 121.118261082000117, 14.562053348000063 ], [ 121.117977781000036, 14.561669980000033 ], [ 121.117707799000073, 14.561223458000029 ], [ 121.117584667000074, 14.561005936000072 ], [ 121.11915284600002, 14.560371731000032 ], [ 121.118085708000081, 14.559494177000033 ], [ 121.11722240000006, 14.558083252000074 ], [ 121.117099291000045, 14.557881766000037 ], [ 121.116842993000091, 14.557397682000044 ], [ 121.118353683, 14.555058205000023 ], [ 121.118124405000117, 14.554927209000027 ], [ 121.117106625000019, 14.554363205000072 ], [ 121.11682957700009, 14.554196639000054 ], [ 121.116096162000076, 14.553816076000032 ], [ 121.115284319000011, 14.554979837000076 ], [ 121.114826926000092, 14.555629228000043 ], [ 121.114658672000019, 14.555868108000027 ], [ 121.114611285000024, 14.555936572000064 ], [ 121.114357769000094, 14.556304026000078 ], [ 121.113841570000091, 14.55704202000004 ], [ 121.113543055000036, 14.557468227000072 ], [ 121.113422377, 14.557634418000077 ], [ 121.113151819000109, 14.558006356000021 ], [ 121.11258195500011, 14.558785901000022 ], [ 121.112148459000082, 14.559383345000072 ], [ 121.111779270000056, 14.559897586000034 ], [ 121.111633897000047, 14.560094278000065 ], [ 121.111238615000048, 14.56063722600004 ], [ 121.110802170000056, 14.561256727000057 ], [ 121.110120262, 14.562201085000027 ], [ 121.109906564000084, 14.562499841000033 ], [ 121.109500175000107, 14.563052981000055 ], [ 121.108579150000082, 14.564328530000068 ], [ 121.108117199000048, 14.564970095000035 ], [ 121.1076178510001, 14.565651548000062 ], [ 121.108631267000078, 14.566323505000071 ], [ 121.108616079000058, 14.566347068000027 ], [ 121.10860423500003, 14.566364926000062 ], [ 121.109378358000072, 14.566860363000046 ], [ 121.109682040000052, 14.567043351000052 ], [ 121.1097059760001, 14.567014462000031 ], [ 121.109904570000026, 14.56714671800006 ], [ 121.110029810000015, 14.567240921000064 ], [ 121.110258523000084, 14.566901962000031 ], [ 121.110532213000056, 14.566620035000028 ], [ 121.110652384000105, 14.566376519000073 ], [ 121.110888098000032, 14.566032546000031 ], [ 121.111143295000034, 14.565658257000052 ], [ 121.111273675, 14.565466908000076 ], [ 121.111342011000033, 14.565367827000046 ], [ 121.111407519000068, 14.56544737300004 ], [ 121.111677997000015, 14.565687798000056 ], [ 121.111894380000081, 14.565765937000037 ], [ 121.112152268000045, 14.565829352000037 ], [ 121.112261029000024, 14.565856096000061 ], [ 121.11254352800006, 14.565952266000068 ], [ 121.112820017000104, 14.565922213000022 ], [ 121.113072464000084, 14.56584407500003 ], [ 121.11330086800001, 14.565669766000042 ], [ 121.113643474000014, 14.565513490000058 ], [ 121.113913952000075, 14.565369235000048 ], [ 121.114310654000064, 14.565164873000072 ], [ 121.114587143000108, 14.565056682000034 ], [ 121.11480352600006, 14.56515285200004 ], [ 121.115067993000025, 14.565255033000028 ], [ 121.115167043000042, 14.565297182000052 ], [ 121.115350493000051, 14.565375245000041 ], [ 121.11556086500002, 14.565555564000022 ], [ 121.115771237000104, 14.565735883000059 ], [ 121.115951556000027, 14.565880139000058 ], [ 121.11616192800011, 14.566150617000062 ], [ 121.116366290000087, 14.566336946000035 ], [ 121.1165586300001, 14.566553329000044 ], [ 121.116666821000081, 14.566733648000024 ], [ 121.11681107600009, 14.566938010000058 ], [ 121.116865172000075, 14.567136360000063 ], [ 121.116738949000023, 14.567424871000071 ], [ 121.11664878900001, 14.567611200000044 ], [ 121.116572832000088, 14.567808688000071 ], [ 121.116415779000022, 14.567808193000076 ], [ 121.116184150000095, 14.567808193000076 ], [ 121.114517184000078, 14.567822679000074 ], [ 121.114526550000051, 14.568199068000069 ], [ 121.114541027000087, 14.568618897000022 ], [ 121.114545250000106, 14.568842643000039 ], [ 121.114115835, 14.568862144000036 ], [ 121.114139416000057, 14.569068937000054 ], [ 121.114167868000095, 14.569588712000041 ], [ 121.116552717000104, 14.569278681000071 ], [ 121.116489699000113, 14.568883284000037 ], [ 121.116570071000069, 14.568838276000065 ], [ 121.11670188100004, 14.56888649900003 ], [ 121.116769002000069, 14.568729178000069 ], [ 121.116979374000039, 14.568771252000033 ], [ 121.117171714000051, 14.568795295000029 ], [ 121.117412140000056, 14.568735188000062 ], [ 121.117610490000061, 14.568651040000077 ], [ 121.117796820000081, 14.56858492300006 ], [ 121.117995171000075, 14.568548859000032 ], [ 121.118223575000115, 14.56858492300006 ], [ 121.118361819000029, 14.568669071000045 ], [ 121.118494053000063, 14.568867422000039 ], [ 121.118506074000038, 14.569053752000059 ], [ 121.118439958000067, 14.569336252000028 ], [ 121.118265649000023, 14.569564656000068 ], [ 121.118163468000034, 14.569769017000056 ], [ 121.118181500000105, 14.569919283000047 ], [ 121.118254143000058, 14.570034656000075 ], [ 121.118283681000094, 14.57008157000007 ], [ 121.118427936000103, 14.570171729000037 ], [ 121.118596234000051, 14.570352048000075 ], [ 121.118812617000117, 14.570562420000044 ], [ 121.119047031000036, 14.570814867000024 ], [ 121.119125169000085, 14.571007207000036 ], [ 121.119167244000096, 14.571247632000052 ], [ 121.119227350000074, 14.571397898000043 ], [ 121.11911314800011, 14.571518111000046 ], [ 121.118704425000033, 14.571650345000023 ], [ 121.118415915000014, 14.571740504000047 ], [ 121.11819352200007, 14.571872738000025 ], [ 121.118043256000078, 14.571962897000049 ], [ 121.117995171000075, 14.572149227000068 ], [ 121.118013203000032, 14.572311514000035 ], [ 121.118127405000109, 14.572467790000076 ], [ 121.118289692000076, 14.572702205000041 ], [ 121.118427936000103, 14.572888535000061 ], [ 121.118590223000069, 14.573086885000066 ], [ 121.118704425000033, 14.573225130000026 ], [ 121.118782564000071, 14.573375396000074 ], [ 121.118932829000073, 14.573585768000044 ], [ 121.11909511600004, 14.573760076000042 ], [ 121.119215329000099, 14.57397645900005 ], [ 121.11925592700004, 14.574068339000064 ], [ 121.119329531000062, 14.574234916000023 ], [ 121.119305488, 14.574445288000049 ], [ 121.119209318000117, 14.574643639000044 ], [ 121.119131180000068, 14.57481193700005 ], [ 121.11913719100005, 14.574974224000073 ], [ 121.119233361000056, 14.575094436000029 ], [ 121.11938963700004, 14.575172575000067 ], [ 121.119563946000085, 14.575256723000052 ], [ 121.119720222000069, 14.575437042000033 ], [ 121.119810381000093, 14.57561736100007 ], [ 121.119834424000032, 14.575821723000047 ], [ 121.119744265, 14.57605012700003 ], [ 121.11957596700006, 14.576236456000061 ], [ 121.119443733000026, 14.576386722000052 ], [ 121.119413680000093, 14.576645179000025 ], [ 121.119377616000065, 14.576879594000047 ], [ 121.119381697000108, 14.577087716000051 ], [ 121.119383627000047, 14.577186136000023 ], [ 121.119299478000016, 14.577396508000049 ], [ 121.119119159000093, 14.577612891000058 ], [ 121.11888474400007, 14.577883369000062 ], [ 121.118783946, 14.578030967000075 ], [ 121.118716447000111, 14.57812980500006 ], [ 121.118524106000109, 14.578183901000045 ], [ 121.118283681000094, 14.578286082000034 ], [ 121.118163468000034, 14.578448369000057 ], [ 121.118115383000031, 14.578622677000055 ], [ 121.118097352000063, 14.578796985000054 ], [ 121.118013203000032, 14.579127570000026 ], [ 121.117995171000075, 14.579530282000064 ], [ 121.118001181000068, 14.579746665000073 ], [ 121.118019213000025, 14.579987090000031 ], [ 121.118097352000063, 14.580305654000028 ], [ 121.118115383000031, 14.580672302000039 ], [ 121.118061288000035, 14.580978844000072 ], [ 121.118976701000065, 14.581131321000043 ], [ 121.119514957000092, 14.581342542000073 ], [ 121.119946787000117, 14.581509938000067 ], [ 121.12000518100001, 14.581323455000074 ], [ 121.122632772000088, 14.582172723000042 ], [ 121.123273398000038, 14.582285077000051 ], [ 121.123380910000037, 14.581896569000037 ], [ 121.123474846000022, 14.581734143000062 ], [ 121.12376430900008, 14.581892032000042 ], [ 121.123685365000028, 14.582242896000025 ], [ 121.12369413600004, 14.583023569000034 ], [ 121.12382571, 14.583663895000029 ], [ 121.123857656000041, 14.583776690000036 ], [ 121.124758411000016, 14.583489008000072 ], [ 121.1247513510001, 14.583679623000023 ], [ 121.124873884000067, 14.583755028000041 ], [ 121.125071821, 14.58383043200007 ], [ 121.125118949000012, 14.584000093000043 ], [ 121.125250907, 14.584188604000076 ], [ 121.125382865, 14.584433669000077 ], [ 121.125392291000026, 14.584678735000068 ], [ 121.125477121000017, 14.584876672000064 ], [ 121.125514823000117, 14.585150014000021 ], [ 121.125458270000081, 14.585479909000071 ], [ 121.125298035000014, 14.585838081000077 ], [ 121.125269758000059, 14.586017167000023 ], [ 121.12534516300002, 14.586177402000033 ], [ 121.125458270000081, 14.586422467000034 ], [ 121.125590228000078, 14.586563851000051 ], [ 121.125816442000087, 14.586563851000051 ], [ 121.125957826000104, 14.586629830000049 ], [ 121.12598610200007, 14.587101109000059 ], [ 121.126202891000048, 14.587157662000038 ], [ 121.126372551000031, 14.587119960000052 ], [ 121.126504509000029, 14.587006853000048 ], [ 121.12661761600009, 14.586922023000056 ], [ 121.126796702000092, 14.58693144800003 ], [ 121.126881532000084, 14.587016279000068 ], [ 121.127098321000062, 14.587016279000068 ], [ 121.127352811000037, 14.586903172000063 ], [ 121.127531898000029, 14.586799490000033 ], [ 121.127710984000032, 14.586846618000038 ], [ 121.127918346000115, 14.586922023000056 ], [ 121.127984325000057, 14.586865469000031 ], [ 121.128031453000062, 14.586724086000061 ], [ 121.128172837000079, 14.586686383000028 ], [ 121.128301786000065, 14.586678357000039 ], [ 121.128361349000102, 14.586818341000026 ], [ 121.128342497000062, 14.586978576000035 ], [ 121.128417902000024, 14.587053981000054 ], [ 121.128738372000043, 14.587167088000058 ], [ 121.128917458000046, 14.587308472000075 ], [ 121.129011714000058, 14.587449855000045 ], [ 121.129087118000029, 14.587610090000055 ], [ 121.12919080000006, 14.587591239000062 ], [ 121.129407588000049, 14.587383876000047 ], [ 121.129633802000058, 14.587327323000068 ], [ 121.129860016000066, 14.587270769000042 ], [ 121.13014278300011, 14.587346174000061 ], [ 121.13044440200008, 14.587327323000068 ], [ 121.130585786000097, 14.587195365000071 ], [ 121.131271243000015, 14.587852546000022 ], [ 121.131106921000082, 14.588285760000076 ], [ 121.131016644000056, 14.588816438000038 ], [ 121.13034506300005, 14.588733911000077 ], [ 121.130160433000015, 14.588779612000053 ], [ 121.129985509000107, 14.588917711000022 ], [ 121.129971361000116, 14.589095610000072 ], [ 121.130040916000098, 14.589351848000035 ], [ 121.129830216000073, 14.589473371000054 ], [ 121.129923075000079, 14.590060953000034 ], [ 121.129957754000088, 14.59017562300005 ], [ 121.130116950000115, 14.590702035000049 ], [ 121.129816658000095, 14.59228005500006 ], [ 121.129797818000043, 14.592855144000055 ], [ 121.129777723000075, 14.593296402000021 ], [ 121.129756775000033, 14.593756417000066 ], [ 121.130960203000086, 14.593734181000059 ], [ 121.131121958000108, 14.59372705800007 ], [ 121.13161371800004, 14.593873852000058 ], [ 121.132055946000037, 14.593975964000037 ], [ 121.13293486200007, 14.59417478000006 ], [ 121.132868805000044, 14.594439009000041 ], [ 121.132802748000017, 14.594732596000028 ], [ 121.132824767000102, 14.594916089000037 ], [ 121.132956881000041, 14.595040863000065 ], [ 121.133184412000105, 14.595018844000037 ], [ 121.13334588500004, 14.595239035000077 ], [ 121.133646813000041, 14.595473905000063 ], [ 121.133455603000016, 14.595777572000031 ], [ 121.132821044000025, 14.59531479900005 ], [ 121.132218038000019, 14.59590378200005 ], [ 121.132182979000049, 14.596012464000069 ], [ 121.132292279000012, 14.596239738000065 ], [ 121.132624717000112, 14.596930997000072 ], [ 121.133223297000086, 14.59822543100006 ], [ 121.133144038000069, 14.598650550000059 ], [ 121.133100805000026, 14.599025230000052 ], [ 121.133172859000069, 14.599399911000035 ], [ 121.133352090000017, 14.599412417000053 ], [ 121.134397777000117, 14.599486376000073 ], [ 121.134839856000099, 14.599573362000058 ], [ 121.135723349000045, 14.599825789000022 ], [ 121.136387132000095, 14.600013673000035 ], [ 121.136403926000071, 14.599633005000044 ] ] ] ] } },
{ "type": "Feature", "properties": { "OBJECTID": 12594, "ADM4_EN": "San Roque", "ADM4_PCODE": "PH0405805017", "ADM4_REF": null, "ADM3_EN": "Cainta", "ADM3_PCODE": "PH0405805", "ADM2_EN": "Rizal", "ADM2_PCODE": "PH04058", "ADM1_EN": "Region IV-A (Calabarzon)", "ADM1_PCODE": "PH04", "ADM0_EN": "Philippines (the)", "ADM0_PCODE": "PH", "date": "2022-11-09T00:00:00Z", "validOn": "2023-11-06T00:00:00Z", "validTo": null, "Shape_Length": 0.030193378127706311, "Shape_Area": 3.4769795848202415e-05, "AREA_SQKM": 0.41456664905083568 }, "geometry": { "type": "MultiPolygon", "coordinates": [ [ [ [ 121.119377616000065, 14.576879594000047 ], [ 121.119413680000093, 14.576645179000025 ], [ 121.119443733000026, 14.576386722000052 ], [ 121.11957596700006, 14.576236456000061 ], [ 121.119744265, 14.57605012700003 ], [ 121.119834424000032, 14.575821723000047 ], [ 121.119810381000093, 14.57561736100007 ], [ 121.119720222000069, 14.575437042000033 ], [ 121.119563946000085, 14.575256723000052 ], [ 121.11938963700004, 14.575172575000067 ], [ 121.119233361000056, 14.575094436000029 ], [ 121.11913719100005, 14.574974224000073 ], [ 121.119131180000068, 14.57481193700005 ], [ 121.119209318000117, 14.574643639000044 ], [ 121.119305488, 14.574445288000049 ], [ 121.119329531000062, 14.574234916000023 ], [ 121.11925592700004, 14.574068339000064 ], [ 121.119215329000099, 14.57397645900005 ], [ 121.11909511600004, 14.573760076000042 ], [ 121.118932829000073, 14.573585768000044 ], [ 121.118782564000071, 14.573375396000074 ], [ 121.118704425000033, 14.573225130000026 ], [ 121.118590223000069, 14.573086885000066 ], [ 121.118427936000103, 14.572888535000061 ], [ 121.118289692000076, 14.572702205000041 ], [ 121.118127405000109, 14.572467790000076 ], [ 121.118013203000032, 14.572311514000035 ], [ 121.117995171000075, 14.572149227000068 ], [ 121.118043256000078, 14.571962897000049 ], [ 121.11819352200007, 14.571872738000025 ], [ 121.118415915000014, 14.571740504000047 ], [ 121.118704425000033, 14.571650345000023 ], [ 121.11911314800011, 14.571518111000046 ], [ 121.119227350000074, 14.571397898000043 ], [ 121.119167244000096, 14.571247632000052 ], [ 121.119125169000085, 14.571007207000036 ], [ 121.119047031000036, 14.570814867000024 ], [ 121.118812617000117, 14.570562420000044 ], [ 121.118596234000051, 14.570352048000075 ], [ 121.118427936000103, 14.570171729000037 ], [ 121.118283681000094, 14.57008157000007 ], [ 121.118254143000058, 14.570034656000075 ], [ 121.118181500000105, 14.569919283000047 ], [ 121.118163468000034, 14.569769017000056 ], [ 121.118265649000023, 14.569564656000068 ], [ 121.118439958000067, 14.569336252000028 ], [ 121.118506074000038, 14.569053752000059 ], [ 121.118494053000063, 14.568867422000039 ], [ 121.118361819000029, 14.568669071000045 ], [ 121.118223575000115, 14.56858492300006 ], [ 121.117995171000075, 14.568548859000032 ], [ 121.117796820000081, 14.56858492300006 ], [ 121.117610490000061, 14.568651040000077 ], [ 121.117412140000056, 14.568735188000062 ], [ 121.117171714000051, 14.568795295000029 ], [ 121.116979374000039, 14.568771252000033 ], [ 121.116769002000069, 14.568729178000069 ], [ 121.11670188100004, 14.56888649900003 ], [ 121.116570071000069, 14.568838276000065 ], [ 121.116489699000113, 14.568883284000037 ], [ 121.116552717000104, 14.569278681000071 ], [ 121.114167868000095, 14.569588712000041 ], [ 121.114129492000075, 14.569698335000055 ], [ 121.114109503, 14.570338400000026 ], [ 121.113803580000081, 14.570339599000022 ], [ 121.113546029000076, 14.570340608000038 ], [ 121.113406343000065, 14.570341155000051 ], [ 121.113259826000103, 14.570370596000032 ], [ 121.113110667000115, 14.571207790000074 ], [ 121.113070909000044, 14.571578450000061 ], [ 121.113055827000039, 14.571733037000058 ], [ 121.113043735000019, 14.571843479000052 ], [ 121.113011313000015, 14.572139581000044 ], [ 121.112949348000029, 14.572806409000066 ], [ 121.11482636300002, 14.57304702700003 ], [ 121.114762887000097, 14.573286554000049 ], [ 121.114767623000034, 14.573572370000022 ], [ 121.114743549000082, 14.573955819000048 ], [ 121.114696790000039, 14.574320537000062 ], [ 121.114266609000083, 14.574315861000059 ], [ 121.114284754000096, 14.574695925000071 ], [ 121.114296790000026, 14.574990801000069 ], [ 121.115049024000086, 14.574972747000061 ], [ 121.115710991000014, 14.575008854000032 ], [ 121.115819312000099, 14.57504496200005 ], [ 121.115855420000116, 14.575177355000051 ], [ 121.115879491000101, 14.575478249000071 ], [ 121.115891527000031, 14.575634713000056 ], [ 121.115915598000015, 14.575815250000062 ], [ 121.115995895000083, 14.575942351000037 ], [ 121.116032848000032, 14.576098487000024 ], [ 121.116069178000089, 14.57637186200003 ], [ 121.116220081000051, 14.576461738000035 ], [ 121.1164310690001, 14.576496708000036 ], [ 121.116732108000065, 14.576542714000027 ], [ 121.11739817900002, 14.576470850000021 ], [ 121.1175791820001, 14.576557756000057 ], [ 121.118427668000095, 14.576795821000076 ], [ 121.11859404300003, 14.576831126000059 ], [ 121.11889158800011, 14.576942322000036 ], [ 121.119381697000108, 14.577087716000051 ], [ 121.119377616000065, 14.576879594000047 ] ] ] ] } },
{ "type": "Feature", "properties": { "OBJECTID": 12595, "ADM4_EN": "Santa Rosa", "ADM4_PCODE": "PH0405805018", "ADM4_REF": null, "ADM3_EN": "Cainta", "ADM3_PCODE": "PH0405805", "ADM2_EN": "Rizal", "ADM2_PCODE": "PH04058", "ADM1_EN": "Region IV-A (Calabarzon)", "ADM1_PCODE": "PH04", "ADM0_EN": "Philippines (the)", "ADM0_PCODE": "PH", "date": "2022-11-09T00:00:00Z", "validOn": "2023-11-06T00:00:00Z", "validTo": null, "Shape_Length": 0.0082657882317755463, "Shape_Area": 2.5204306862758919e-06, "AREA_SQKM": 0.030050678903840548 }, "geometry": { "type": "MultiPolygon", "coordinates": [ [ [ [ 121.116952675000107, 14.580785680000076 ], [ 121.116929248000019, 14.580691211000044 ], [ 121.117020598000067, 14.58031868300003 ], [ 121.117052471000079, 14.580091457000037 ], [ 121.117077289, 14.580080030000033 ], [ 121.117139408000071, 14.579774568000062 ], [ 121.117215141000088, 14.579318182000065 ], [ 121.117257956000117, 14.579316738000045 ], [ 121.117282786000033, 14.579197807000071 ], [ 121.117565860000013, 14.579206320000026 ], [ 121.117584395000108, 14.579087945000026 ], [ 121.117681880000077, 14.578511911000078 ], [ 121.117722931000117, 14.578265389000023 ], [ 121.117454518000045, 14.578239414000052 ], [ 121.116424841000025, 14.578098124000064 ], [ 121.116374554000117, 14.578308022000044 ], [ 121.116339355000036, 14.578448816000048 ], [ 121.116214350000064, 14.578802181000071 ], [ 121.116184494000095, 14.578896086000043 ], [ 121.11657630600007, 14.578989524000065 ], [ 121.116301293000106, 14.579902450000077 ], [ 121.116182736000042, 14.580432990000077 ], [ 121.1161411920001, 14.580620616000033 ], [ 121.116262271000096, 14.580667265000045 ], [ 121.116302006000069, 14.58057046700003 ], [ 121.116433123000093, 14.580600533000052 ], [ 121.116411002000063, 14.580670765000036 ], [ 121.116562234000071, 14.580708479000066 ], [ 121.11654885400003, 14.580756675000032 ], [ 121.116892079000081, 14.580872831000022 ], [ 121.116952675000107, 14.580785680000076 ] ] ] ] } },
{ "type": "Feature", "properties": { "OBJECTID": 12596, "ADM4_EN": "Santo Niño", "ADM4_PCODE": "PH0405805019", "ADM4_REF": "Santo Nino", "ADM3_EN": "Cainta", "ADM3_PCODE": "PH0405805", "ADM2_EN": "Rizal", "ADM2_PCODE": "PH04058", "ADM1_EN": "Region IV-A (Calabarzon)", "ADM1_PCODE": "PH04", "ADM0_EN": "Philippines (the)", "ADM0_PCODE": "PH", "date": "2022-11-09T00:00:00Z", "validOn": "2023-11-06T00:00:00Z", "validTo": null, "Shape_Length": 0.03040596570797104, "Shape_Area": 2.9535936416146435e-05, "AREA_SQKM": 0.35214643827509717 }, "geometry": { "type": "MultiPolygon", "coordinates": [ [ [ [ 121.117357120000065, 14.585837540000057 ], [ 121.117421541000112, 14.585817622000036 ], [ 121.117597554000099, 14.585763199000041 ], [ 121.119908240000086, 14.585030777000043 ], [ 121.120309543000076, 14.584900582000046 ], [ 121.1212665380001, 14.584602908000022 ], [ 121.123236799000097, 14.58397586500007 ], [ 121.123857656000041, 14.583776690000036 ], [ 121.12382571, 14.583663895000029 ], [ 121.12369413600004, 14.583023569000034 ], [ 121.123685365000028, 14.582242896000025 ], [ 121.12376430900008, 14.581892032000042 ], [ 121.123474846000022, 14.581734143000062 ], [ 121.123380910000037, 14.581896569000037 ], [ 121.123273398000038, 14.582285077000051 ], [ 121.122632772000088, 14.582172723000042 ], [ 121.12000518100001, 14.581323455000074 ], [ 121.119946787000117, 14.581509938000067 ], [ 121.119514957000092, 14.581342542000073 ], [ 121.118976701000065, 14.581131321000043 ], [ 121.118061288000035, 14.580978844000072 ], [ 121.118115383000031, 14.580672302000039 ], [ 121.118097352000063, 14.580305654000028 ], [ 121.118019213000025, 14.579987090000031 ], [ 121.118001181000068, 14.579746665000073 ], [ 121.117995171000075, 14.579530282000064 ], [ 121.118013203000032, 14.579127570000026 ], [ 121.118097352000063, 14.578796985000054 ], [ 121.118115383000031, 14.578622677000055 ], [ 121.117681880000077, 14.578511911000078 ], [ 121.117584395000108, 14.579087945000026 ], [ 121.117565860000013, 14.579206320000026 ], [ 121.117282786000033, 14.579197807000071 ], [ 121.117257956000117, 14.579316738000045 ], [ 121.117215141000088, 14.579318182000065 ], [ 121.117139408000071, 14.579774568000062 ], [ 121.117077289, 14.580080030000033 ], [ 121.117052471000079, 14.580091457000037 ], [ 121.117020598000067, 14.58031868300003 ], [ 121.116929248000019, 14.580691211000044 ], [ 121.116952675000107, 14.580785680000076 ], [ 121.116892079000081, 14.580872831000022 ], [ 121.11654885400003, 14.580756675000032 ], [ 121.116562234000071, 14.580708479000066 ], [ 121.116411002000063, 14.580670765000036 ], [ 121.116433123000093, 14.580600533000052 ], [ 121.116302006000069, 14.58057046700003 ], [ 121.116262271000096, 14.580667265000045 ], [ 121.1161411920001, 14.580620616000033 ], [ 121.116114161000041, 14.580742708000059 ], [ 121.115948671000069, 14.58066541200003 ], [ 121.115849129000026, 14.580898991000026 ], [ 121.115916223000113, 14.580939797000042 ], [ 121.115903545000037, 14.581071092000059 ], [ 121.115950221000048, 14.581107261000056 ], [ 121.115981609000073, 14.58126134400004 ], [ 121.115837354000064, 14.581453684000053 ], [ 121.11556086500002, 14.581766237000068 ], [ 121.115302408000048, 14.582048737000036 ], [ 121.115230280000105, 14.582235066000067 ], [ 121.115230280000105, 14.582421396000029 ], [ 121.115302408000048, 14.582511555000053 ], [ 121.115392567000072, 14.582637779000038 ], [ 121.115530812000088, 14.582745970000076 ], [ 121.115639003000069, 14.582770013000072 ], [ 121.115813312000114, 14.582697885000073 ], [ 121.115945546000034, 14.582667832000027 ], [ 121.116083790000062, 14.582709906000048 ], [ 121.116107833000115, 14.582836129000043 ], [ 121.116101822000019, 14.582974374000059 ], [ 121.115939535000052, 14.583196767000061 ], [ 121.115723152000101, 14.583419161000052 ], [ 121.115632993000077, 14.583551395000029 ], [ 121.115693099000055, 14.583671607000042 ], [ 121.115927514000077, 14.583767777000048 ], [ 121.11616192800011, 14.583881979000068 ], [ 121.116528577000054, 14.584044266000035 ], [ 121.116660811000088, 14.584194532000026 ], [ 121.116642779000017, 14.584332777000043 ], [ 121.116583458000036, 14.584449621000033 ], [ 121.116444428000023, 14.58472346800005 ], [ 121.116385107000042, 14.58484031200004 ], [ 121.116318205000084, 14.584999957000036 ], [ 121.116264109000099, 14.585246393000034 ], [ 121.116282141000056, 14.58541469000005 ], [ 121.116384322000044, 14.585546924000028 ], [ 121.116522566000071, 14.585625062000076 ], [ 121.116847140000118, 14.585522882000078 ], [ 121.117015438000067, 14.585462775000053 ], [ 121.117273895000039, 14.585480807000067 ], [ 121.117280409000045, 14.585736155000063 ], [ 121.117283576000091, 14.585860280000077 ], [ 121.117357120000065, 14.585837540000057 ] ] ] ] } },
{ "type": "Feature", "properties": { "OBJECTID": 12597, "ADM4_EN": "Santo Domingo", "ADM4_PCODE": "PH0405805020", "ADM4_REF": null, "ADM3_EN": "Cainta", "ADM3_PCODE": "PH0405805", "ADM2_EN": "Rizal", "ADM2_PCODE": "PH04058", "ADM1_EN": "Region IV-A (Calabarzon)", "ADM1_PCODE": "PH04", "ADM0_EN": "Philippines (the)", "ADM0_PCODE": "PH", "date": "2022-11-09T00:00:00Z", "validOn": "2023-11-06T00:00:00Z", "validTo": null, "Shape_Length": 0.1304716980277906, "Shape_Area": 0.00030876691357751526, "AREA_SQKM": 3.6811403249854413 }, "geometry": { "type": "MultiPolygon", "coordinates": [ [ [ [ 121.122509620000073, 14.605790440000021 ], [ 121.12302284000009, 14.605676072000051 ], [ 121.123339338000051, 14.605643611000062 ], [ 121.124775753000108, 14.606106185000044 ], [ 121.12571713300008, 14.605773456000065 ], [ 121.125703300000055, 14.60569090000007 ], [ 121.125705900000071, 14.605338700000061 ], [ 121.12570728500009, 14.605156251000039 ], [ 121.125708900000063, 14.604943300000059 ], [ 121.12571180000009, 14.604553 ], [ 121.125709900000061, 14.604162600000052 ], [ 121.125706200000081, 14.603431700000044 ], [ 121.1257041, 14.603024800000071 ], [ 121.125702100000012, 14.602625900000078 ], [ 121.125701502000084, 14.60220300800006 ], [ 121.125714648000098, 14.601815189000035 ], [ 121.125504306000039, 14.601387931000033 ], [ 121.125809383000046, 14.601300127000059 ], [ 121.125844727000072, 14.601291429000071 ], [ 121.127795335000087, 14.600811399000065 ], [ 121.127770425000108, 14.599939563000078 ], [ 121.127791967, 14.599526855000022 ], [ 121.127924522000058, 14.599273413000049 ], [ 121.1284994130001, 14.598539510000023 ], [ 121.127989200000115, 14.598426300000028 ], [ 121.127590204000057, 14.598268912000037 ], [ 121.126615813000058, 14.598162468000055 ], [ 121.126674520000051, 14.597892225000066 ], [ 121.125552275000018, 14.597693540000023 ], [ 121.125640378000071, 14.596981012000072 ], [ 121.125665551000111, 14.596396371000026 ], [ 121.125665551000111, 14.596341561000031 ], [ 121.125706276000074, 14.595987473000037 ], [ 121.126187880000089, 14.596091870000066 ], [ 121.126534002000085, 14.596213671000044 ], [ 121.128163040000118, 14.596594665000055 ], [ 121.128264611000077, 14.59662170200005 ], [ 121.128554456000074, 14.596655824000038 ], [ 121.128896944000076, 14.596661940000047 ], [ 121.129135463000011, 14.596674172000064 ], [ 121.129747049000116, 14.596747562000076 ], [ 121.130100839000079, 14.596615300000053 ], [ 121.129174573000114, 14.596157147000042 ], [ 121.129383730000086, 14.595718913000042 ], [ 121.128238347000092, 14.595579475000022 ], [ 121.127790153000092, 14.59542011800005 ], [ 121.127411679000033, 14.59527072000003 ], [ 121.12679416800006, 14.594752807000077 ], [ 121.126425653000069, 14.594533691000038 ], [ 121.126057138000078, 14.594493851000038 ], [ 121.125419708000095, 14.594354413000076 ], [ 121.124812157000065, 14.594224935000057 ], [ 121.124324124000054, 14.594115377000037 ], [ 121.124324626000089, 14.594308206000051 ], [ 121.124115876000019, 14.594281600000045 ], [ 121.124034014000017, 14.594240669000044 ], [ 121.123747494000099, 14.594216110000048 ], [ 121.12362879300008, 14.594177226000056 ], [ 121.123522503000117, 14.594133001000046 ], [ 121.12326104400006, 14.594111213000076 ], [ 121.12309782400007, 14.594045018000031 ], [ 121.123037948000047, 14.594331796000063 ], [ 121.122964557000046, 14.594698748000042 ], [ 121.122885051000026, 14.595065700000077 ], [ 121.122469172000024, 14.594961730000023 ], [ 121.122089989000074, 14.594894456000077 ], [ 121.12168022600008, 14.594796602000031 ], [ 121.120866816000103, 14.594655937000027 ], [ 121.12045093800009, 14.59462535800003 ], [ 121.120292916000039, 14.594609467000055 ], [ 121.120515806000071, 14.59331822200005 ], [ 121.120077308000077, 14.593359980000059 ], [ 121.120077308000077, 14.592952122000042 ], [ 121.119038167000099, 14.592840895000052 ], [ 121.118992509, 14.592496389000075 ], [ 121.118722716000093, 14.592209992000051 ], [ 121.118500311000048, 14.59201954100007 ], [ 121.118293322000113, 14.591965070000072 ], [ 121.117999181000073, 14.592084905000036 ], [ 121.117476263000071, 14.592030435000027 ], [ 121.116991395000014, 14.592224736000048 ], [ 121.11681107600009, 14.591882130000045 ], [ 121.116564641000082, 14.591725853000071 ], [ 121.116378311000062, 14.591665747000036 ], [ 121.116294162000031, 14.591485428000055 ], [ 121.116299512000069, 14.591333023000061 ], [ 121.116396488000078, 14.591109147000054 ], [ 121.116456594000056, 14.590840151000066 ], [ 121.11655844400002, 14.590532375000066 ], [ 121.116632514000116, 14.590203273000043 ], [ 121.116670189000047, 14.589944815000024 ], [ 121.11675613400007, 14.589718222000045 ], [ 121.116714390000084, 14.589556841000046 ], [ 121.116680268000096, 14.58942765200004 ], [ 121.11652498300009, 14.589347126000064 ], [ 121.116466652000099, 14.589233032000038 ], [ 121.116546609000011, 14.589123250000057 ], [ 121.116750970000112, 14.589033090000044 ], [ 121.116943310000011, 14.588978995000048 ], [ 121.117183736000015, 14.589093197000068 ], [ 121.117412140000056, 14.589033090000044 ], [ 121.117562405000058, 14.588960963000034 ], [ 121.117640544000096, 14.588660431000051 ], [ 121.117634533000114, 14.58836591000005 ], [ 121.117598469000086, 14.588077400000032 ], [ 121.11758954600009, 14.588031792000038 ], [ 121.117544373000101, 14.587800911000045 ], [ 121.117406129000074, 14.587596549000068 ], [ 121.117267884000057, 14.587458305000041 ], [ 121.117171714000051, 14.587458305000041 ], [ 121.11706352300007, 14.587572507000061 ], [ 121.116919268000061, 14.587704741000039 ], [ 121.116805066000097, 14.587758837000024 ], [ 121.116662597000072, 14.587766576000035 ], [ 121.11658267200005, 14.587614581000025 ], [ 121.1165586300001, 14.587512401000026 ], [ 121.116636768000035, 14.587320060000025 ], [ 121.116720917000066, 14.587067614000034 ], [ 121.116901236000103, 14.587001497000074 ], [ 121.11712964000003, 14.586953412000071 ], [ 121.117334001000017, 14.586959423000053 ], [ 121.117442193000102, 14.586863252000057 ], [ 121.117424161000031, 14.586634848000074 ], [ 121.117370065000046, 14.586490593000065 ], [ 121.117350414000043, 14.586417347000065 ], [ 121.117303948000085, 14.586244157000067 ], [ 121.11729192700011, 14.586057828000037 ], [ 121.117283576000091, 14.585860280000077 ], [ 121.117280409000045, 14.585736155000063 ], [ 121.117273895000039, 14.585480807000067 ], [ 121.117015438000067, 14.585462775000053 ], [ 121.116847140000118, 14.585522882000078 ], [ 121.116522566000071, 14.585625062000076 ], [ 121.116384322000044, 14.585546924000028 ], [ 121.116282141000056, 14.58541469000005 ], [ 121.116264109000099, 14.585246393000034 ], [ 121.116318205000084, 14.584999957000036 ], [ 121.116385107000042, 14.58484031200004 ], [ 121.116444428000023, 14.58472346800005 ], [ 121.116583458000036, 14.584449621000033 ], [ 121.116642779000017, 14.584332777000043 ], [ 121.116660811000088, 14.584194532000026 ], [ 121.116528577000054, 14.584044266000035 ], [ 121.11616192800011, 14.583881979000068 ], [ 121.115927514000077, 14.583767777000048 ], [ 121.115693099000055, 14.583671607000042 ], [ 121.115632993000077, 14.583551395000029 ], [ 121.115723152000101, 14.583419161000052 ], [ 121.115939535000052, 14.583196767000061 ], [ 121.116101822000019, 14.582974374000059 ], [ 121.116107833000115, 14.582836129000043 ], [ 121.116083790000062, 14.582709906000048 ], [ 121.115945546000034, 14.582667832000027 ], [ 121.115813312000114, 14.582697885000073 ], [ 121.115639003000069, 14.582770013000072 ], [ 121.115530812000088, 14.582745970000076 ], [ 121.115392567000072, 14.582637779000038 ], [ 121.115302408000048, 14.582511555000053 ], [ 121.115230280000105, 14.582421396000029 ], [ 121.115230280000105, 14.582235066000067 ], [ 121.115302408000048, 14.582048737000036 ], [ 121.11556086500002, 14.581766237000068 ], [ 121.115837354000064, 14.581453684000053 ], [ 121.115981609000073, 14.58126134400004 ], [ 121.115950221000048, 14.581107261000056 ], [ 121.115903545000037, 14.581071092000059 ], [ 121.115916223000113, 14.580939797000042 ], [ 121.115849129000026, 14.580898991000026 ], [ 121.115948671000069, 14.58066541200003 ], [ 121.116114161000041, 14.580742708000059 ], [ 121.1161411920001, 14.580620616000033 ], [ 121.116182736000042, 14.580432990000077 ], [ 121.116301293000106, 14.579902450000077 ], [ 121.11657630600007, 14.578989524000065 ], [ 121.116184494000095, 14.578896086000043 ], [ 121.116214350000064, 14.578802181000071 ], [ 121.116339355000036, 14.578448816000048 ], [ 121.115903510000066, 14.578379704000042 ], [ 121.115688737000028, 14.578359922000061 ], [ 121.115560156000015, 14.578313765000075 ], [ 121.115398134000088, 14.578308113000048 ], [ 121.115189012000087, 14.578340141000069 ], [ 121.115053366000097, 14.578392892000068 ], [ 121.114953515000025, 14.578456947000063 ], [ 121.114740626000071, 14.578473903000031 ], [ 121.114572952000117, 14.578481439000029 ], [ 121.11446043300009, 14.578532125000038 ], [ 121.114604793000012, 14.57871414400006 ], [ 121.11436289300002, 14.578882969000063 ], [ 121.114379216000088, 14.57910967600003 ], [ 121.114292379000062, 14.579369762000056 ], [ 121.114144911000039, 14.579363921000038 ], [ 121.113890881000088, 14.579300527000044 ], [ 121.11365692600009, 14.579325911000069 ], [ 121.113539723000031, 14.579332381000029 ], [ 121.113543511000103, 14.579202070000065 ], [ 121.113305886000035, 14.579229454000028 ], [ 121.113114883000094, 14.579088555000055 ], [ 121.112827918000107, 14.57919636500003 ], [ 121.112237232000098, 14.579407697000022 ], [ 121.112315162000073, 14.579539718000035 ], [ 121.111840619000077, 14.580045076000033 ], [ 121.111780519000035, 14.580213444000037 ], [ 121.10903616500002, 14.579963428000042 ], [ 121.108765454000036, 14.580089419000046 ], [ 121.108943193000073, 14.580637576000072 ], [ 121.109028966000096, 14.580865563000032 ], [ 121.109057533000055, 14.580946777000065 ], [ 121.109068806000096, 14.581016025000054 ], [ 121.109073637000051, 14.581091715000071 ], [ 121.109060754000097, 14.581149690000075 ], [ 121.109038208000015, 14.581215717000077 ], [ 121.108981843000038, 14.58129623800005 ], [ 121.108898101000023, 14.581442786000025 ], [ 121.108878776000097, 14.581489489000035 ], [ 121.108875555000054, 14.581532970000069 ], [ 121.10892547800006, 14.58174232500005 ], [ 121.108993116000079, 14.582038642000043 ], [ 121.109010830000102, 14.582086955000022 ], [ 121.109026935000088, 14.582143319000068 ], [ 121.10903337600007, 14.582201295000061 ], [ 121.109028545000115, 14.582268932000034 ], [ 121.109010830000102, 14.582343012000024 ], [ 121.108986674000107, 14.582423533000053 ], [ 121.108962518000112, 14.582508885000038 ], [ 121.108935141000075, 14.582560418000071 ], [ 121.108888439000111, 14.582611952000036 ], [ 121.108814359, 14.582645771000045 ], [ 121.108729007000079, 14.582677979000039 ], [ 121.108696798000096, 14.582710187000032 ], [ 121.108683915000029, 14.582745617000057 ], [ 121.108693578000043, 14.582880892000048 ], [ 121.108688746000098, 14.582950140000037 ], [ 121.108671032000075, 14.582992011000044 ], [ 121.108630771000094, 14.583049986000049 ], [ 121.108481002000076, 14.583172378000029 ], [ 121.108440742000084, 14.583206197000038 ], [ 121.108429469000043, 14.583251289000032 ], [ 121.108390819000078, 14.583430045000057 ], [ 121.108369883000023, 14.583653894000065 ], [ 121.108342506000099, 14.583687713000074 ], [ 121.108261985000013, 14.583711869000069 ], [ 121.10818146400004, 14.58375213000005 ], [ 121.108146035000118, 14.58379883200007 ], [ 121.108131541000034, 14.583863249000046 ], [ 121.108139593000033, 14.583911561000036 ], [ 121.108168580000097, 14.583958263000056 ], [ 121.108241049000071, 14.584046837000074 ], [ 121.108282920000079, 14.584104812000078 ], [ 121.108276479000097, 14.584164397000052 ], [ 121.108197568000037, 14.584265854000023 ], [ 121.108176633000085, 14.584483261000059 ], [ 121.108232989000044, 14.584866675000058 ], [ 121.10833767500003, 14.585372213000028 ], [ 121.108340895000083, 14.585402811000051 ], [ 121.108324791000086, 14.585449513000071 ], [ 121.108279699000036, 14.585512319000031 ], [ 121.10821528300005, 14.585604113000045 ], [ 121.108207231000051, 14.585650816000054 ], [ 121.108226556000091, 14.585699128000044 ], [ 121.108319960000017, 14.585885937000057 ], [ 121.108402798000043, 14.58613493200005 ], [ 121.108429330000035, 14.586267595000038 ], [ 121.108466476000103, 14.586448017000066 ], [ 121.108493008000096, 14.586692117000041 ], [ 121.108448794000083, 14.586803877000023 ], [ 121.108382766000091, 14.586914996000075 ], [ 121.108328506000021, 14.587079492000044 ], [ 121.108339119000107, 14.587164396000048 ], [ 121.108642718000056, 14.587715427000035 ], [ 121.104091276000077, 14.588730138000074 ], [ 121.103982688000087, 14.588769619000061 ], [ 121.103661270000089, 14.58885278300005 ], [ 121.103456731000051, 14.588897737000025 ], [ 121.10351163200005, 14.589186921000078 ], [ 121.103551446000097, 14.589481542000044 ], [ 121.103551446000097, 14.589863753000031 ], [ 121.103567371000054, 14.590142449000041 ], [ 121.103535520000037, 14.590500772000041 ], [ 121.103551446000097, 14.590803356000038 ], [ 121.103576519000057, 14.591227907000075 ], [ 121.103605999000024, 14.591745149000076 ], [ 121.103651094000043, 14.592483235000032 ], [ 121.103670887000021, 14.592730338000024 ], [ 121.103678849000062, 14.593009034000033 ], [ 121.103695172000016, 14.593668617000048 ], [ 121.104091486000016, 14.593672637000054 ], [ 121.104255525000099, 14.593625358000054 ], [ 121.104470172000106, 14.593613434000076 ], [ 121.104732518000105, 14.59358362100005 ], [ 121.104845804000092, 14.593488223000065 ], [ 121.104851767000014, 14.593386862000045 ], [ 121.104786180000019, 14.593225876000076 ], [ 121.104768293, 14.593058929000051 ], [ 121.104756368000039, 14.59288005600007 ], [ 121.104762330000085, 14.592683296000075 ], [ 121.10472655600006, 14.592528273000028 ], [ 121.104744443000072, 14.592432874000053 ], [ 121.10475710500009, 14.592228198000043 ], [ 121.105379605000053, 14.592211615000053 ], [ 121.105790285000012, 14.592214840000054 ], [ 121.106436316000099, 14.592254213000047 ], [ 121.10668952900005, 14.592275763000032 ], [ 121.106644268000082, 14.591792054000052 ], [ 121.106774268000095, 14.591662054000039 ], [ 121.1072217090001, 14.591659505000052 ], [ 121.107573079000076, 14.591596938000066 ], [ 121.107643117000066, 14.591823213000055 ], [ 121.1079080290001, 14.591836399000044 ], [ 121.107917580000048, 14.592287169000031 ], [ 121.107940367000083, 14.592313055000034 ], [ 121.109113905000072, 14.59229192500004 ], [ 121.109332452000103, 14.592283604000045 ], [ 121.110449782000046, 14.592235448000054 ], [ 121.11045450000006, 14.592334529000027 ], [ 121.110416755000074, 14.59243833000005 ], [ 121.110369573000071, 14.59254684800004 ], [ 121.110327109000082, 14.592763884000021 ], [ 121.110270491000051, 14.592971484000032 ], [ 121.110284646000082, 14.59315549300004 ], [ 121.11029880000001, 14.593315912000037 ], [ 121.110289364000096, 14.59397173900004 ], [ 121.110180846000048, 14.594523767000055 ], [ 121.110020427000109, 14.594679467000049 ], [ 121.109944937000023, 14.594726649000052 ], [ 121.109855291000031, 14.594769112000051 ], [ 121.109784518000083, 14.594877631000031 ], [ 121.109756209000011, 14.59506164000004 ], [ 121.109444809000024, 14.595538176000048 ], [ 121.109487273000013, 14.595788240000047 ], [ 121.109416500000066, 14.596189286000026 ], [ 121.109440863000032, 14.59725558100007 ], [ 121.109231172000023, 14.597593052000036 ], [ 121.108934268000098, 14.598122054000044 ], [ 121.107834994000086, 14.59986086400005 ], [ 121.107528759000047, 14.60037271300007 ], [ 121.10725423000008, 14.600865742000053 ], [ 121.107117348000088, 14.601060695000058 ], [ 121.107044268000095, 14.601172054000074 ], [ 121.106821, 14.601586876000056 ], [ 121.109126321000076, 14.602538983000045 ], [ 121.109091255000067, 14.602351967000061 ], [ 121.109155542000053, 14.602129887000046 ], [ 121.1093250240001, 14.602106510000056 ], [ 121.109459442000116, 14.602141575000076 ], [ 121.109564638000052, 14.602048067000055 ], [ 121.109675678000031, 14.601890273000038 ], [ 121.109821784000019, 14.601750012000025 ], [ 121.10978087400008, 14.601650660000075 ], [ 121.10962308, 14.601510399000063 ], [ 121.109436065000068, 14.601329227000065 ], [ 121.109430220000036, 14.601212343000043 ], [ 121.109558793000019, 14.601025328000048 ], [ 121.109436065000068, 14.600791559000072 ], [ 121.109729721, 14.600859486000047 ], [ 121.112001500000019, 14.601333730000022 ], [ 121.11328654600004, 14.601639693000038 ], [ 121.11369959700005, 14.602358707000064 ], [ 121.11387197900001, 14.602708808000045 ], [ 121.114078333000066, 14.603030720000049 ], [ 121.114265787000022, 14.60312459000005 ], [ 121.115588843000069, 14.603105008000057 ], [ 121.115946872000109, 14.603090390000034 ], [ 121.116380703000118, 14.603090390000034 ], [ 121.116755376000015, 14.603083817000027 ], [ 121.117353537000099, 14.603110110000046 ], [ 121.117333817000031, 14.603622819000066 ], [ 121.117695343000037, 14.603589953000039 ], [ 121.118129175000036, 14.603511075000029 ], [ 121.119187460000035, 14.60345191600004 ], [ 121.119588425000074, 14.60341905000007 ], [ 121.120002537000119, 14.603379611000037 ], [ 121.120429795000064, 14.603386184000044 ], [ 121.120830760000104, 14.603359891000025 ], [ 121.120804467000085, 14.604082944000027 ], [ 121.121218579000015, 14.604359018000025 ], [ 121.12119228600011, 14.604825715000061 ], [ 121.121189848000085, 14.605055426000035 ], [ 121.121179140000095, 14.605266120000067 ], [ 121.121302116000038, 14.605676018000054 ], [ 121.121526440000025, 14.605677981000042 ], [ 121.121669779000058, 14.606136227000036 ], [ 121.122509620000073, 14.605790440000021 ] ] ] ] } }
]
}
